{"type":"FeatureCollection","features":[{"type":"Feature","properties":{"district":"เมืองนราธิวาส","districtCode":"TH9601","province":"นราธิวาส"},"geometry":{"type":"Polygon","coordinates":[[[101.91877508951742,6.372867453561727],[101.91423240237206,6.369642370452382],[101.90977083464001,6.3677879476645085],[101.90149665448237,6.367465439353574],[101.89954978856294,6.366497914420771],[101.8976840420568,6.3621440522231545],[101.89954978856294,6.354161971527526],[101.90360575922844,6.345292992976828],[101.91561143239834,6.3365852685815955],[101.91666598477137,6.2978842712694565],[101.91715270125123,6.295868594326116],[101.91634150711813,6.283210143121937],[101.9113121034929,6.28861215733009],[101.90474143101478,6.29240162998357],[101.90190225154893,6.295868594326116],[101.89744068381687,6.296110475559317],[101.89533157907081,6.300383710679199],[101.88908538424593,6.3009481002233345],[101.88413710003401,6.2981261525026575],[101.87797202462244,6.297239254647588],[101.86223485844027,6.298932423279994],[101.85387955886934,6.2976423900362555],[101.84893127465742,6.300786846067867],[101.84722776697791,6.3030444042444085],[101.84203612452606,6.3009481002233345],[101.83019269018278,6.2983680337358585],[101.82208074885177,6.298529287891325],[101.81778141994633,6.298932423279994],[101.80885828448223,6.304656945799081],[101.79636589483246,6.3053825894986835],[101.79020081942089,6.308527045530295],[101.78363014694277,6.307559520597492],[101.7766538773981,6.303770047944011],[101.77389581734556,6.304011929177212],[101.76967760785344,6.307478893519757],[101.76627059249441,6.319250446868867],[101.76245798006883,6.326910019253561],[101.75799641233678,6.331425135606644],[101.75142573985866,6.333279558394517],[101.74761312743308,6.33666589565933],[101.72968573709154,6.3471474157647005],[101.72108707928066,6.3473892969979016],[101.72392625874653,6.35045312595178],[101.72441297522639,6.354565106916194],[101.72335842285335,6.358757714958343],[101.72392625874653,6.3626278146895565],[101.72141155693392,6.364643491632897],[101.72262834813357,6.367949201819976],[101.7349584989567,6.369481116296915],[101.73812215607579,6.372544945250793],[101.73958230551538,6.380123890557753],[101.74355715676758,6.380607653024155],[101.74801872449963,6.37939824685815],[101.74866767980612,6.377463196992544],[101.75402156108458,6.372786826483994],[101.75710409879036,6.373351216028128],[101.76164678593572,6.376818180370675],[101.76919089137357,6.379801382246819],[101.7678929807606,6.3835102278225655],[101.7678118613473,6.392540460528731],[101.77649163857149,6.396652441493146],[101.77892522097079,6.400603168302093],[101.78363014694277,6.401006303690762],[101.78565813227553,6.402860726478635],[101.77916857921072,6.420034294035897],[101.77681611622472,6.428338883042461],[101.77162447377287,6.438336640681429],[101.76716290604082,6.442448621645845],[101.75166909809859,6.45301076882895],[101.74736976919314,6.457203376871098],[101.74420611207405,6.458896545503504],[101.73747320076932,6.4658304741885955],[101.72384513933322,6.48461658330053],[101.7157331980022,6.497194407426975],[101.71589543682882,6.499935728069919],[101.71824789981481,6.5021932862464595],[101.72262834813357,6.510094739864355],[101.72717103527893,6.5127554334295645],[101.72554864701273,6.516786787316246],[101.72465633346631,6.523640088923604],[101.72197939282708,6.5258976471001455],[101.72027588514757,6.530493390530962],[101.72027588514757,6.5354922693504465],[101.71873461629468,6.541861808491403],[101.7228717063735,6.545006264523014],[101.71256954088311,6.563792373634949],[101.7093247643507,6.568871879532168],[101.71346185442953,6.570323166931372],[101.71930245218785,6.57427389374032],[101.72481857229293,6.576853960227796],[101.74088021612835,6.553230226451844],[101.75288588929824,6.534605371495377],[101.77357133969232,6.505498996433539],[101.77908745979741,6.498806948981648],[101.79060641648745,6.48284278759039],[101.80058410432459,6.470103709308478],[101.80845268741567,6.461073476602312],[101.81632127050675,6.4529301417512155],[101.82410873418452,6.44768938169853],[101.83286963082202,6.446238094299325],[101.83741231796738,6.440432944702504],[101.84722776697791,6.432370236929142],[101.85598866361539,6.427532612265124],[101.85947679838773,6.428822645508862],[101.87488948691666,6.424307529155779],[101.88438045827394,6.412455348728936],[101.90295680392195,6.390121648196723],[101.91204217821269,6.379801382246819],[101.91877508951742,6.372867453561727]]]}},{"type":"Feature","properties":{"district":"ตากใบ","districtCode":"TH9602","province":"นราธิวาส"},"geometry":{"type":"Polygon","coordinates":[[[102.06405995875586,6.104863047175161],[102.05513682329175,6.120182191944549],[102.05181092734603,6.1275998830960425],[102.04605144900101,6.1301799495835185],[102.0467815237208,6.1350982013252695],[102.05026965849314,6.138081403201413],[102.0508374943863,6.1425965195544965],[102.04645704606756,6.144450942342369],[102.03088211871201,6.147676025451714],[102.0226890579677,6.151062362716527],[101.99632524864191,6.169848471828462],[101.91918068658399,6.230641288439614],[101.92015411954371,6.233463236160291],[101.92664367260852,6.234511388170828],[101.92907725500781,6.237413962969239],[101.92867165794127,6.243138485488325],[101.93021292679416,6.24434789165433],[101.92648143378189,6.249266143396081],[101.9320786733003,6.253136243127295],[101.9329709868467,6.2566032074698406],[101.9313485985805,6.260231425967854],[101.9281038220481,6.261198950900657],[101.92437232903583,6.265310931865073],[101.91991076130377,6.267407235886147],[101.9177205371444,6.271116081461893],[101.91715270125123,6.277888755991517],[101.91634150711813,6.283210143121937],[101.91715270125123,6.295868594326116],[101.91666598477137,6.2978842712694565],[101.91561143239834,6.3365852685815955],[101.90360575922844,6.345292992976828],[101.89954978856294,6.354161971527526],[101.8976840420568,6.3621440522231545],[101.89954978856294,6.366497914420771],[101.90149665448237,6.367465439353574],[101.90977083464001,6.3677879476645085],[101.91423240237206,6.369642370452382],[101.91877508951742,6.372867453561727],[101.92583247847541,6.365127254099299],[101.93402553921973,6.3569839192482025],[101.94148852524427,6.34803431361977],[101.94359762999034,6.3473892969979016],[101.95268300428106,6.33868157260267],[101.97312509643521,6.322072394589544],[101.98115591835291,6.3159447366817885],[102.00760084709201,6.2981261525026575],[102.00857428005173,6.295949221403849],[102.01206241482407,6.295949221403849],[102.03355905935125,6.281758855722732],[102.0419143589222,6.275792451970443],[102.05805712217091,6.265149677709605],[102.06941384003433,6.256764461625308],[102.08182511027077,6.24991116001795],[102.08904473805538,6.244912281198466],[102.09196503693454,6.236043302647767],[102.08393421501684,6.229593136429076],[102.08028384141788,6.224352376376391],[102.0812572743776,6.220401649567444],[102.08004048317795,6.2183859726241035],[102.07906705021823,6.210242637773007],[102.07995936376464,6.20185742168871],[102.07760690077865,6.198148576112963],[102.07752578136534,6.1913759015833385],[102.07995936376464,6.185570751986518],[102.08068943848443,6.180894381477968],[102.07849921432506,6.172992927860072],[102.07971600552472,6.170251607217129],[102.08555660328304,6.165736490864046],[102.08393421501684,6.161543882821898],[102.08555660328304,6.157512528935217],[102.08888249922876,6.158963816334422],[102.09139720104136,6.15469058121454],[102.09026152925503,6.152110514727064],[102.09301958930757,6.148724177462252],[102.08863914098882,6.139613317678352],[102.08547548386973,6.136307607491274],[102.0828796626438,6.136630115802208],[102.08190622968408,6.131469982827256],[102.08028384141788,6.129534932961649],[102.07931040845816,6.123084766742959],[102.07200966126025,6.112361365404388],[102.06738585470157,6.109700671839177],[102.06405995875586,6.104863047175161]]]}},{"type":"Feature","properties":{"district":"บาเจาะ","districtCode":"TH9603","province":"นราธิวาส"},"geometry":{"type":"Polygon","coordinates":[[[101.7093247643507,6.568871879532168],[101.71256954088311,6.563792373634949],[101.7228717063735,6.545006264523014],[101.71873461629468,6.541861808491403],[101.72027588514757,6.5354922693504465],[101.72027588514757,6.530493390530962],[101.72197939282708,6.5258976471001455],[101.72465633346631,6.523640088923604],[101.72554864701273,6.516786787316246],[101.72717103527893,6.5127554334295645],[101.72262834813357,6.510094739864355],[101.71824789981481,6.5021932862464595],[101.71589543682882,6.499935728069919],[101.70591774899168,6.492195528607491],[101.69447991171495,6.4843747020673295],[101.68547565683753,6.479133942014643],[101.67119864009494,6.473409419495556],[101.66470908703013,6.471958132096351],[101.6612209522578,6.472522521640486],[101.65408244388651,6.471554996707683],[101.64645721903536,6.472200013329552],[101.6363172923716,6.472038759174085],[101.63437042645215,6.47526384228343],[101.63112564991975,6.4761507401384995],[101.62471721626825,6.482520279279456],[101.61936333498979,6.4843747020673295],[101.61563184197752,6.488325428876276],[101.6114947518987,6.490824868286019],[101.60808773653967,6.491469884907888],[101.60678982592671,6.494130578473097],[101.60776325888644,6.498242559437513],[101.60484296000728,6.5021932862464595],[101.60086810875508,6.503886454878866],[101.59843452635577,6.508159689998748],[101.59437855569027,6.509369096164752],[101.59072818209131,6.512110416807696],[101.59218833153089,6.518883091337321],[101.59089042091793,6.522914445224002],[101.59510863041005,6.529445238520425],[101.59778557104929,6.529445238520425],[101.60322057174106,6.535008506884045],[101.60492407942058,6.539604250314862],[101.60889893067278,6.5441999937456785],[101.60094922816839,6.549198872565163],[101.59778557104929,6.552746463985442],[101.5970554963295,6.561051052992005],[101.59243168977082,6.565566169345089],[101.59454079451689,6.56782372752163],[101.59381071979709,6.57338699588525],[101.5969743769162,6.579675907948473],[101.59527086923667,6.582578482746883],[101.59048482385138,6.586367955400363],[101.58780788321215,6.590157428053844],[101.58237288252036,6.591044325908914],[101.57912810598796,6.592656867463586],[101.57442318001597,6.5983813899826735],[101.57369310529619,6.601445218936552],[101.57693788182858,6.609104791321245],[101.57588332945555,6.61676436370594],[101.57693788182858,6.619425057271149],[101.58431974843981,6.625552715178905],[101.5866722114258,6.626358985956241],[101.59283728683737,6.625552715178905],[101.59916460107556,6.623537038235565],[101.60159818347486,6.62498832563477],[101.60614087062024,6.631761000164394],[101.61344161781814,6.633131660485866],[101.61457728960448,6.629745323221053],[101.62025564853619,6.6293421878323855],[101.62325706682867,6.633373541719067],[101.62690744042762,6.632002881397595],[101.62633960453445,6.6293421878323855],[101.62325706682867,6.62789090043318],[101.62374378330853,6.625310833945704],[101.62715079866756,6.624585190246101],[101.63055781402657,6.62789090043318],[101.6299088587201,6.632970406330399],[101.63136900815968,6.635147337429206],[101.63266691877264,6.631599746008927],[101.63299139642588,6.623053275769163],[101.63826415829104,6.6185381594160795],[101.6435369201562,6.620150700970752],[101.6467816966886,6.617893142794211],[101.64694393551522,6.614748686762599],[101.65254117503362,6.601122710625617],[101.6564349068725,6.595478815184263],[101.66130207167112,6.593060002852255],[101.65992304164484,6.589109276043307],[101.66097759401788,6.586771090789032],[101.66568251998986,6.584110397223823],[101.66568251998986,6.577902112238333],[101.66892729652227,6.573951385429385],[101.67663364078672,6.572741979263381],[101.68782811982352,6.572822606341115],[101.70543103251181,6.568065608754831],[101.7093247643507,6.568871879532168]]]}},{"type":"Feature","properties":{"district":"ยี่งอ","districtCode":"TH9604","province":"นราธิวาส"},"geometry":{"type":"Polygon","coordinates":[[[101.72108707928066,6.3473892969979016],[101.71127163027015,6.349646855174443],[101.70340304717907,6.3525494299728535],[101.69658901646102,6.356580783859535],[101.69366871758186,6.35714517340367],[101.68620573155732,6.355774513082198],[101.68239311913175,6.3577095629478055],[101.67533573017377,6.358193325414208],[101.66081535519125,6.353516954905657],[101.65554259332609,6.352871938283788],[101.65083766735411,6.354726361071662],[101.64410475604937,6.362547187611823],[101.64159005423676,6.363595339622361],[101.63591169530504,6.368916726752779],[101.6322613217061,6.372383691095325],[101.62625848512114,6.3799626364022854],[101.62528505216142,6.383993990288967],[101.62852982869383,6.390282902352189],[101.62333818624198,6.400361287068892],[101.62788087338734,6.402215709856766],[101.63355923231906,6.406408317898914],[101.64296908426303,6.408343367764521],[101.64378027839612,6.413664754894941],[101.64702505492853,6.4210018189687],[101.64743065199508,6.431563966151805],[101.6403732630371,6.435917828349421],[101.63802080005111,6.4394654197697],[101.63696624767807,6.447286246309862],[101.63412706821222,6.453494531295351],[101.63501938175864,6.456558360249229],[101.6332347546658,6.4609122224468445],[101.63688512826477,6.466959253276866],[101.6363172923716,6.472038759174085],[101.64645721903536,6.472200013329552],[101.65408244388651,6.471554996707683],[101.6612209522578,6.472522521640486],[101.66470908703013,6.471958132096351],[101.67119864009494,6.473409419495556],[101.68547565683753,6.479133942014643],[101.69447991171495,6.4843747020673295],[101.70591774899168,6.492195528607491],[101.71589543682882,6.499935728069919],[101.7157331980022,6.497194407426975],[101.72384513933322,6.48461658330053],[101.73747320076932,6.4658304741885955],[101.74420611207405,6.458896545503504],[101.74736976919314,6.457203376871098],[101.75166909809859,6.45301076882895],[101.76716290604082,6.442448621645845],[101.77162447377287,6.438336640681429],[101.77681611622472,6.428338883042461],[101.77916857921072,6.420034294035897],[101.78565813227553,6.402860726478635],[101.78363014694277,6.401006303690762],[101.77892522097079,6.400603168302093],[101.77649163857149,6.396652441493146],[101.7678118613473,6.392540460528731],[101.7678929807606,6.3835102278225655],[101.76919089137357,6.379801382246819],[101.76164678593572,6.376818180370675],[101.75710409879036,6.373351216028128],[101.75402156108458,6.372786826483994],[101.74866767980612,6.377463196992544],[101.74801872449963,6.37939824685815],[101.74355715676758,6.380607653024155],[101.73958230551538,6.380123890557753],[101.73812215607579,6.372544945250793],[101.7349584989567,6.369481116296915],[101.72262834813357,6.367949201819976],[101.72141155693392,6.364643491632897],[101.72392625874653,6.3626278146895565],[101.72335842285335,6.358757714958343],[101.72441297522639,6.354565106916194],[101.72392625874653,6.35045312595178],[101.72108707928066,6.3473892969979016]]]}},{"type":"Feature","properties":{"district":"ระแงะ","districtCode":"TH9605","province":"นราธิวาส"},"geometry":{"type":"Polygon","coordinates":[[[101.63591169530504,6.368916726752779],[101.64159005423676,6.363595339622361],[101.64410475604937,6.362547187611823],[101.65083766735411,6.354726361071662],[101.65554259332609,6.352871938283788],[101.66081535519125,6.353516954905657],[101.67533573017377,6.358193325414208],[101.68239311913175,6.3577095629478055],[101.68620573155732,6.355774513082198],[101.69366871758186,6.35714517340367],[101.69658901646102,6.356580783859535],[101.70340304717907,6.3525494299728535],[101.71127163027015,6.349646855174443],[101.72108707928066,6.3473892969979016],[101.72968573709154,6.3471474157647005],[101.74761312743308,6.33666589565933],[101.75142573985866,6.333279558394517],[101.75799641233678,6.331425135606644],[101.76245798006883,6.326910019253561],[101.76627059249441,6.319250446868867],[101.76967760785344,6.307478893519757],[101.77389581734556,6.304011929177212],[101.7766538773981,6.303770047944011],[101.78363014694277,6.307559520597492],[101.79020081942089,6.308527045530295],[101.79636589483246,6.3053825894986835],[101.80885828448223,6.304656945799081],[101.81778141994633,6.298932423279994],[101.82208074885177,6.298529287891325],[101.80342328379044,6.27482492703764],[101.79093089414069,6.260312053045587],[101.78095320630354,6.251281820339422],[101.77787066859776,6.24991116001795],[101.77089439905308,6.244025383343396],[101.76262021889545,6.232415084149753],[101.7678118613473,6.229512509351343],[101.77146223494626,6.2202403954119765],[101.78273783339637,6.210242637773007],[101.7813588033701,6.2000836259785705],[101.7838735051827,6.193714086837614],[101.79036305824751,6.185006362442382],[101.78890290880793,6.17758867129089],[101.7893896252878,6.172831673704605],[101.79117425238061,6.166300880408182],[101.79733932779219,6.15380368335947],[101.80334216437713,6.149288567006387],[101.80317992555051,6.1449347048087715],[101.80050298491128,6.135581963791671],[101.80188201493755,6.1296961871171165],[101.79352671536661,6.1327600160709945],[101.78557701286222,6.128406153873378],[101.78054760923699,6.132921270226461],[101.77892522097079,6.132195626526859],[101.77276014555922,6.123246020898426],[101.76894753313364,6.124374799986697],[101.76278245772207,6.122117241810156],[101.75945656177636,6.123084766742959],[101.76026775590945,6.118085887923475],[101.7534537251914,6.115505821435999],[101.74866767980612,6.117602125457073],[101.74599073916687,6.125906714463636],[101.74193476850137,6.1344531847034],[101.73309275245057,6.139452063522885],[101.73325499127719,6.142435265399029],[101.73049693122465,6.144128434031435],[101.73041581181134,6.150417346094658],[101.72522416935949,6.154287445825872],[101.72595424407928,6.157270647702016],[101.72270946754688,6.159286324645357],[101.72270946754688,6.161302001588697],[101.71630103389538,6.163317678532038],[101.71402969032269,6.165413982553112],[101.71110939144353,6.175250486036614],[101.7116772273367,6.180249364856099],[101.71370521266945,6.184925735364649],[101.71183946616331,6.187828310163059],[101.70543103251181,6.188473326784928],[101.6973190911808,6.190166495417334],[101.6932631205153,6.1898439871064],[101.68945050808972,6.186296395686121],[101.68555677625083,6.184522599975981],[101.68004065614575,6.185248243675583],[101.66949513241543,6.188231445551727],[101.66633147529635,6.18605451445292],[101.66406013172366,6.187344547696657],[101.65708386217898,6.187747683085326],[101.65408244388651,6.1864576498415875],[101.6436180395695,6.177024281746754],[101.63866975535758,6.173960452792876],[101.6323424411194,6.173718571559675],[101.63015221696003,6.179120585767828],[101.6282864704539,6.180894381477968],[101.62715079866756,6.183151939654509],[101.62893542576037,6.187586428929858],[101.63096341109313,6.187908937240794],[101.62982773930679,6.192907816060278],[101.63331587407912,6.1998417447453695],[101.63169348581292,6.2021799299996445],[101.62642072394776,6.205324386031256],[101.62423049978838,6.209758875306605],[101.62074236501606,6.209516994073405],[101.61587520021745,6.21564465198116],[101.6147395284311,6.221933564044383],[101.61628079728399,6.2254005283869285],[101.61579408080414,6.232818219538422],[101.61968781264302,6.2383008608243085],[101.61928221557648,6.241042181467251],[101.60922340832602,6.253216870205029],[101.60938564715264,6.256200072081173],[101.61254930427174,6.262569611222129],[101.61044019952567,6.266439710953343],[101.61084579659222,6.27039043776229],[101.60646534827347,6.2774856206028495],[101.60549191531375,6.286112717920347],[101.59348624214385,6.293046646605439],[101.59640654102301,6.296513610947985],[101.5946219139302,6.2981261525026575],[101.59356736155716,6.3035281667108105],[101.60167930288817,6.3086882996857625],[101.59981355638205,6.315057838826719],[101.6010303475817,6.317879786547396],[101.6010303475817,6.321427377967675],[101.60484296000728,6.329812594051972],[101.60411288528748,6.332392660539448],[101.60889893067278,6.333118304239051],[101.61327937899152,6.337875301825334],[101.61384721488469,6.340616622468278],[101.6107646771789,6.3525494299728535],[101.60638422886016,6.354323225682993],[101.60557303472706,6.358515833725142],[101.60727654240657,6.361015273134884],[101.61181922955194,6.36335345838916],[101.61417169253794,6.366014151954369],[101.61830878261675,6.364562864555164],[101.62268923093549,6.364643491632897],[101.62423049978838,6.368916726752779],[101.6275563957341,6.371174284929321],[101.63591169530504,6.368916726752779]]]}},{"type":"Feature","properties":{"district":"รือเสาะ","districtCode":"TH9606","province":"นราธิวาส"},"geometry":{"type":"Polygon","coordinates":[[[101.6363172923716,6.472038759174085],[101.63688512826477,6.466959253276866],[101.6332347546658,6.4609122224468445],[101.63501938175864,6.456558360249229],[101.63412706821222,6.453494531295351],[101.63696624767807,6.447286246309862],[101.63802080005111,6.4394654197697],[101.6403732630371,6.435917828349421],[101.64743065199508,6.431563966151805],[101.64702505492853,6.4210018189687],[101.64378027839612,6.413664754894941],[101.64296908426303,6.408343367764521],[101.63355923231906,6.406408317898914],[101.62788087338734,6.402215709856766],[101.62333818624198,6.400361287068892],[101.62852982869383,6.390282902352189],[101.62528505216142,6.383993990288967],[101.62625848512114,6.3799626364022854],[101.6322613217061,6.372383691095325],[101.63591169530504,6.368916726752779],[101.6275563957341,6.371174284929321],[101.62423049978838,6.368916726752779],[101.62268923093549,6.364643491632897],[101.61830878261675,6.364562864555164],[101.61417169253794,6.366014151954369],[101.61181922955194,6.36335345838916],[101.60727654240657,6.361015273134884],[101.60557303472706,6.358515833725142],[101.60638422886016,6.354323225682993],[101.6107646771789,6.3525494299728535],[101.61384721488469,6.340616622468278],[101.61327937899152,6.337875301825334],[101.60889893067278,6.333118304239051],[101.60411288528748,6.332392660539448],[101.60484296000728,6.329812594051972],[101.6010303475817,6.321427377967675],[101.6010303475817,6.317879786547396],[101.59689325750287,6.317234769925526],[101.59056594326469,6.314412822204849],[101.58326519606678,6.312961534805644],[101.57815467302824,6.312719653572444],[101.5737742247095,6.314090313893915],[101.56801474636447,6.314332195127116],[101.56298534273925,6.3157028554485874],[101.55901049148706,6.320137344723936],[101.54789713186356,6.327313154642229],[101.54513907181102,6.324571833999286],[101.54075862349228,6.32465246107702],[101.53572921986705,6.319411701024334],[101.53329563746775,6.318847311480199],[101.53240332392133,6.3138484326607145],[101.52996974152202,6.315299720059919],[101.52469697965687,6.313284043116578],[101.52072212840467,6.313445297272046],[101.51869414307193,6.311187739095504],[101.51342138120677,6.314170940971649],[101.51358362003339,6.316912261614592],[101.50425488750273,6.323201173677814],[101.49946884211742,6.322394902900478],[101.49273593081269,6.318363549013797],[101.49265481139938,6.315138465904452],[101.49565622969185,6.313284043116578],[101.49873876739764,6.3138484326607145],[101.50149682745018,6.310945857862303],[101.50303809630307,6.306027606120552],[101.50530943987576,6.303850675021745],[101.50579615635561,6.2983680337358585],[101.50044227507715,6.296110475559317],[101.50060451390377,6.294578561082378],[101.49565622969185,6.288450903174622],[101.49671078206488,6.282242618189134],[101.49492615497206,6.27861439969112],[101.49192473667958,6.278130637224718],[101.48665197481442,6.270632318995491],[101.48600301950795,6.262972746610798],[101.48908555721373,6.253297497282762],[101.48421839241512,6.251765582805824],[101.48137921294926,6.252249345272225],[101.47172600276537,6.255796936692505],[101.4576112248494,6.260070171812386],[101.45493428421017,6.258054494869046],[101.452013985331,6.253055616049561],[101.45112167178459,6.245960433209002],[101.44382092458669,6.240477791923116],[101.44114398394746,6.236285183880968],[101.44000831216111,6.231205677983749],[101.43449219205601,6.234511388170828],[101.42832711664445,6.233060100771622],[101.42151308592639,6.241687198089121],[101.41794383174076,6.242170960555522],[101.41064308454284,6.234914523559496],[101.39847517254633,6.23144755921695],[101.40334233734494,6.239752148223514],[101.40042203846576,6.242735350099657],[101.39742062017329,6.242977231332858],[101.3951492766006,6.245396043664867],[101.39717726193336,6.250314295406618],[101.39677166486682,6.253620005593697],[101.40001644139922,6.256280699158906],[101.40098987435894,6.259667036423719],[101.40009756081253,6.265310931865073],[101.40269338203845,6.271196708539627],[101.4022877849719,6.27393802918257],[101.39977308315929,6.277163112291915],[101.39961084433267,6.2819201098781985],[101.39498703777399,6.286112717920347],[101.39547375425386,6.293933544460509],[101.39385136598764,6.30151248976747],[101.39766397841322,6.305543843654151],[101.39977308315929,6.311348993250972],[101.39977308315929,6.317799159469661],[101.39482479894737,6.32287866536688],[101.38963315649552,6.326426256787159],[101.38817300705594,6.330215729440639],[101.3877674099894,6.335537116571059],[101.38906532060236,6.340374741235077],[101.3934457689211,6.343519197266688],[101.39758285899991,6.351017515495915],[101.39733950075998,6.3569839192482025],[101.39863741137295,6.359563985735679],[101.40415353147803,6.3628696959227575],[101.40853397979679,6.3675460664313075],[101.4142934581418,6.369964878763317],[101.41697039878103,6.3727061994062595],[101.41761935408752,6.377140688681609],[101.41964733942027,6.381817059190159],[101.41956622000696,6.390202275274456],[101.4119409951558,6.39584617071581],[101.41380674166194,6.399151880902888],[101.41867390646054,6.4013288120016965],[101.42191868299295,6.406892080365316],[101.42224316064619,6.411084688407465],[101.42483898187211,6.415116042294146],[101.42256763829943,6.418744260792159],[101.42492010128542,6.422453106367906],[101.43489778912257,6.42922578089753],[101.44284749162696,6.428258255964726],[101.44609226815936,6.429467662130731],[101.45736786660947,6.431725220307273],[101.46255950906132,6.42454941038898],[101.46612876324697,6.423340004222975],[101.46913018153944,6.426161951943652],[101.46783227092648,6.436965980359958],[101.46450637498076,6.442690502879046],[101.46604764383366,6.4501081940305385],[101.46280286730125,6.453817039606285],[101.46280286730125,6.457122749793364],[101.46661547972683,6.464621068022591],[101.47716100345714,6.464137305556189],[101.48673309422773,6.462927899390185],[101.49395272201234,6.45680024148243],[101.50279473806314,6.454381429150421],[101.50758078344843,6.4513176001965435],[101.51431369475317,6.458896545503504],[101.52348018845721,6.465669220033128],[101.53037533858858,6.466394863732731],[101.53581033928036,6.4684105406760715],[101.53759496637318,6.47284502995142],[101.54278660882503,6.47816641708184],[101.54270548941172,6.480423975258382],[101.5522775801823,6.4817946355798535],[101.56152519329967,6.487680412254408],[101.56347205921911,6.4948562221727],[101.56866370167096,6.498484440670714],[101.57369310529619,6.49864569482618],[101.57880362833473,6.504612098578469],[101.58196728545381,6.511949162652229],[101.59072818209131,6.512110416807696],[101.59437855569027,6.509369096164752],[101.59843452635577,6.508159689998748],[101.60086810875508,6.503886454878866],[101.60484296000728,6.5021932862464595],[101.60776325888644,6.498242559437513],[101.60678982592671,6.494130578473097],[101.60808773653967,6.491469884907888],[101.6114947518987,6.490824868286019],[101.61563184197752,6.488325428876276],[101.61936333498979,6.4843747020673295],[101.62471721626825,6.482520279279456],[101.63112564991975,6.4761507401384995],[101.63437042645215,6.47526384228343],[101.6363172923716,6.472038759174085]]]}},{"type":"Feature","properties":{"district":"ศรีสาคร","districtCode":"TH9607","province":"นราธิวาส"},"geometry":{"type":"Polygon","coordinates":[[[101.6010303475817,6.317879786547396],[101.59981355638205,6.315057838826719],[101.60167930288817,6.3086882996857625],[101.59356736155716,6.3035281667108105],[101.5946219139302,6.2981261525026575],[101.59640654102301,6.296513610947985],[101.59348624214385,6.293046646605439],[101.60549191531375,6.286112717920347],[101.60646534827347,6.2774856206028495],[101.61084579659222,6.27039043776229],[101.61044019952567,6.266439710953343],[101.61254930427174,6.262569611222129],[101.60938564715264,6.256200072081173],[101.60922340832602,6.253216870205029],[101.61928221557648,6.241042181467251],[101.61968781264302,6.2383008608243085],[101.61579408080414,6.232818219538422],[101.61628079728399,6.2254005283869285],[101.6147395284311,6.221933564044383],[101.61587520021745,6.21564465198116],[101.62074236501606,6.209516994073405],[101.62423049978838,6.209758875306605],[101.62642072394776,6.205324386031256],[101.63169348581292,6.2021799299996445],[101.63331587407912,6.1998417447453695],[101.62982773930679,6.192907816060278],[101.63096341109313,6.187908937240794],[101.62893542576037,6.187586428929858],[101.62715079866756,6.183151939654509],[101.6282864704539,6.180894381477968],[101.62520393274811,6.174927977725679],[101.62147243973584,6.172347911238203],[101.61749758848364,6.16493022008671],[101.61993117088295,6.1606569849668285],[101.62001229029626,6.157915664323885],[101.6154696031509,6.154771208292273],[101.61287378192497,6.149288567006387],[101.61457728960448,6.1451765860419725],[101.61628079728399,6.136871997035409],[101.61392833429801,6.127035493551907],[101.61327937899152,6.120101564866816],[101.60654646768678,6.115022058969597],[101.60638422886016,6.105911199185697],[101.60322057174106,6.096880966479532],[101.60151706406155,6.094059018758855],[101.5986778845957,6.093172120903785],[101.58878131617186,6.092527104281916],[101.58334631548009,6.092930239670584],[101.57604556828218,6.087205717151496],[101.57239519468322,6.088334496239767],[101.567365791058,6.086883208840562],[101.56558116396518,6.082287465409745],[101.56160631271298,6.078417365678532],[101.5553601178881,6.078497992756265],[101.55122302780929,6.075111655491453],[101.54457123591786,6.075917926268789],[101.53767608578649,6.075837299191056],[101.53118653272168,6.073095978548112],[101.52899630856231,6.067613337262226],[101.52291235256405,6.061405052276736],[101.51966757603165,6.059711883644331],[101.51715287421904,6.0546323777471125],[101.51163675411394,6.054067988202977],[101.50822973875492,6.058663731633794],[101.50579615635561,6.058099342089658],[101.50311921571638,6.0623725772095405],[101.50360593219624,6.068983997583698],[101.50036115566384,6.0729347243926455],[101.49654854323826,6.074789147180518],[101.48843660190725,6.074950401335986],[101.47059033097902,6.073902249325449],[101.46677771855344,6.080271788466405],[101.46085600138181,6.077369213667994],[101.45258182122417,6.078578619833999],[101.44657898463923,6.082126211254279],[101.44463211871978,6.086641327607361],[101.43976495392117,6.091882087660046],[101.43725025210856,6.096961593557265],[101.43789920741504,6.104459911786492],[101.44098174512082,6.109458790605977],[101.43887264037477,6.114296415269994],[101.43611458032223,6.116957108835204],[101.4374936103485,6.12332664797616],[101.43538450560243,6.128809289262047],[101.43189637083009,6.128083645562444],[101.42962502725742,6.1296961871171165],[101.42775928075127,6.135501336713937],[101.42743480309804,6.140580842611156],[101.42281099653937,6.144128434031435],[101.41526689110152,6.143402790331833],[101.41112980102271,6.151465498105195],[101.41169763691587,6.157109393546548],[101.39863741137295,6.157835037246151],[101.39393248540095,6.159850714189492],[101.38671285761636,6.167349032418719],[101.38590166348325,6.171702894616335],[101.38606390230987,6.181620025177571],[101.38354920049727,6.1862157686083865],[101.38371143932389,6.18895708925133],[101.38087225985802,6.192585307749344],[101.37478830385977,6.2045181152539195],[101.37138128850074,6.209516994073405],[101.37795196097886,6.214677127048356],[101.38614502172318,6.218305345546369],[101.38825412646925,6.220159768334243],[101.39450032129413,6.222901088977186],[101.39660942604019,6.2256424096201295],[101.39847517254633,6.23144755921695],[101.41064308454284,6.234914523559496],[101.41794383174076,6.242170960555522],[101.42151308592639,6.241687198089121],[101.42832711664445,6.233060100771622],[101.43449219205601,6.234511388170828],[101.44000831216111,6.231205677983749],[101.44114398394746,6.236285183880968],[101.44382092458669,6.240477791923116],[101.45112167178459,6.245960433209002],[101.452013985331,6.253055616049561],[101.45493428421017,6.258054494869046],[101.4576112248494,6.260070171812386],[101.47172600276537,6.255796936692505],[101.48137921294926,6.252249345272225],[101.48421839241512,6.251765582805824],[101.48908555721373,6.253297497282762],[101.48600301950795,6.262972746610798],[101.48665197481442,6.270632318995491],[101.49192473667958,6.278130637224718],[101.49492615497206,6.27861439969112],[101.49671078206488,6.282242618189134],[101.49565622969185,6.288450903174622],[101.50060451390377,6.294578561082378],[101.50044227507715,6.296110475559317],[101.50579615635561,6.2983680337358585],[101.50530943987576,6.303850675021745],[101.50303809630307,6.306027606120552],[101.50149682745018,6.310945857862303],[101.49873876739764,6.3138484326607145],[101.49565622969185,6.313284043116578],[101.49265481139938,6.315138465904452],[101.49273593081269,6.318363549013797],[101.49946884211742,6.322394902900478],[101.50425488750273,6.323201173677814],[101.51358362003339,6.316912261614592],[101.51342138120677,6.314170940971649],[101.51869414307193,6.311187739095504],[101.52072212840467,6.313445297272046],[101.52469697965687,6.313284043116578],[101.52996974152202,6.315299720059919],[101.53240332392133,6.3138484326607145],[101.53329563746775,6.318847311480199],[101.53572921986705,6.319411701024334],[101.54075862349228,6.32465246107702],[101.54513907181102,6.324571833999286],[101.54789713186356,6.327313154642229],[101.55901049148706,6.320137344723936],[101.56298534273925,6.3157028554485874],[101.56801474636447,6.314332195127116],[101.5737742247095,6.314090313893915],[101.57815467302824,6.312719653572444],[101.58326519606678,6.312961534805644],[101.59056594326469,6.314412822204849],[101.59689325750287,6.317234769925526],[101.6010303475817,6.317879786547396]]]}},{"type":"Feature","properties":{"district":"แว้ง","districtCode":"TH9608","province":"นราธิวาส"},"geometry":{"type":"Polygon","coordinates":[[[101.82516328655755,5.7672774727044755],[101.82191851002514,5.769131895492349],[101.81664574815998,5.775662688788773],[101.81031843392181,5.778968398975851],[101.81064291157504,5.782596617473865],[101.80577574677643,5.789691800314423],[101.80131417904438,5.7909818335581615],[101.80090858197782,5.798318897631921],[101.80399111968362,5.802188997363135],[101.81104850864159,5.802108370285402],[101.81372544928082,5.803559657684607],[101.81770030053302,5.8029146410627375],[101.81583455402689,5.812670517468506],[101.81867373349274,5.8165406171997205],[101.81632127050675,5.825006460361751],[101.81372544928082,5.827344645616026],[101.81080515040166,5.83298854105738],[101.81177858336139,5.838954944809668],[101.80966947861532,5.841696265452611],[101.81048067274843,5.8449213485619556],[101.80561350794981,5.852177785557982],[101.80488343323003,5.855644749900528],[101.80050298491128,5.863143068129755],[101.79758268603211,5.865642507539498],[101.79539246187274,5.869673861426179],[101.79952955195155,5.8753983839452655],[101.79993514901811,5.879107229521012],[101.80196313435086,5.882977329252227],[101.80253097024404,5.8918463078029255],[101.80204425376417,5.897328949088812],[101.8055323885365,5.900876540509091],[101.80893940389554,5.906197927639511],[101.80577574677643,5.920307666242895],[101.80650582149623,5.9251452909069116],[101.80496455264334,5.92820911986079],[101.8054512691232,5.93377238822441],[101.80699253797609,5.938932521199362],[101.80504567205665,5.945463314495785],[101.80918276213546,5.949494668382466],[101.81437440458731,5.957638003233563],[101.81267089690779,5.960621205109707],[101.81258977749448,5.964652558996388],[101.81072403098835,5.967797015027999],[101.80983171744194,5.9772303831228335],[101.81664574815998,5.979729822532575],[101.81834925583951,5.983358041030589],[101.8175380617064,5.986421869984467],[101.8222429876784,5.992549527892222],[101.82386537594459,5.992872036203156],[101.83051716783602,5.9868250053731344],[101.83944030330014,5.989566326016078],[101.8464165728448,5.990372596793414],[101.85590754420208,5.984889955507527],[101.86199150020035,5.983519295186056],[101.86815657561192,5.986421869984467],[101.87180694921088,5.994484577757829],[101.87716083048934,5.990533850948881],[101.88356926414085,5.987711903228204],[101.88697627949986,5.985131836740728],[101.89054553368551,5.985534972129397],[101.89817075853666,5.984648074274327],[101.90344352040182,5.991662630037152],[101.91106874525298,5.995935865157034],[101.91447576061199,6.00028972735465],[101.92453456786245,6.0156894992017715],[101.92631919495527,6.015286363813104],[101.93045628503408,6.010126230838152],[101.93508009159277,6.006014249873737],[101.93743255457876,6.002466658453457],[101.93840598753849,5.996419627623435],[101.94156964465758,5.993839561135959],[101.9481403171357,5.990614478026615],[101.94749136182921,5.986260615828999],[101.94302979409716,5.981987380709117],[101.94359762999034,5.97537596033496],[101.94083956993778,5.971425233526013],[101.94108292817772,5.967555133794798],[101.94286755527054,5.96513632146279],[101.94140740583096,5.959492426021436],[101.94448994353674,5.95779925738903],[101.94448994353674,5.954816055512886],[101.93759479340538,5.948285262216462],[101.93589128572587,5.949172160071532],[101.92948285207437,5.949010905916065],[101.93069964327402,5.945463314495785],[101.9297262103143,5.939496910743497],[101.93126747916719,5.936997471333755],[101.92907725500781,5.925951561684248],[101.92526464258223,5.924822782595977],[101.9240478513826,5.919662649621025],[101.92120867191673,5.914663770801541],[101.92185762722322,5.911196806458995],[101.92550800082218,5.908697367049252],[101.92988844914092,5.909987400292991],[101.93280874802008,5.906923571339113],[101.93435001687297,5.90152155713096],[101.93345770332657,5.89974776142082],[101.93751367399207,5.892733205657995],[101.94043397287123,5.885476768661969],[101.93921718167158,5.879429737831947],[101.94213748055074,5.8761240276448685],[101.94319203292378,5.872092673758187],[101.94043397287123,5.869915742659379],[101.94092068935109,5.867416303249637],[101.93791927105862,5.862498051507886],[101.9313485985805,5.861611153652817],[101.92777934439485,5.857579799766135],[101.93005068796754,5.853870954190389],[101.92672479202183,5.849920227381441],[101.92364225431604,5.849517091992773],[101.91723382066453,5.842986298696349],[101.90522814749464,5.841373757141676],[101.89541269848412,5.843953823629152],[101.89184344429847,5.838229301110065],[101.88689516008655,5.839196826042869],[101.88421821944732,5.837826165721397],[101.88486717475381,5.83500421800072],[101.8800000099552,5.83210164320231],[101.8769174722494,5.820168835697733],[101.87967553230196,5.8162987359665195],[101.87594403928969,5.805333453394747],[101.87261814334397,5.803801538917808],[101.86945448622488,5.804849690928345],[101.86410060494642,5.803479030606873],[101.86093694782731,5.800415201652996],[101.8639383661198,5.798399524709655],[101.86418172435972,5.79428754374524],[101.86296493316007,5.79162685018003],[101.85615090244202,5.79404566251204],[101.85558306654885,5.79162685018003],[101.84828231935094,5.791304341869096],[101.8455242592984,5.7902561898585585],[101.84211724393937,5.791304341869096],[101.83635776559436,5.789449919081223],[101.83554657146125,5.7858217005832095],[101.83092276490257,5.776468959566109],[101.82719127189031,5.771792589057559],[101.82516328655755,5.7672774727044755]]]}},{"type":"Feature","properties":{"district":"สุคิริน","districtCode":"TH9609","province":"นราธิวาส"},"geometry":{"type":"Polygon","coordinates":[[[101.79928619371162,6.087528225462431],[101.80253097024404,6.083174363264815],[101.79855611899184,6.077611094901195],[101.79847499957853,6.071644691148907],[101.80658694090954,6.065839541552086],[101.80942612037539,6.060437527343933],[101.81121074746821,6.053342344503374],[101.80999395626856,6.049794753083095],[101.80512679146996,6.047214686595619],[101.79944843253824,6.042860824398003],[101.79450014832634,6.034636862469173],[101.80058410432459,6.028347950405951],[101.80220649259078,6.023590952819667],[101.80139529845769,6.015286363813104],[101.80317992555051,6.01319005979203],[101.80358552261706,6.007465537272942],[101.80115194021776,6.002144150142523],[101.801476417871,5.998677185799977],[101.79944843253824,5.99408144236916],[101.79896171605839,5.988356919850073],[101.803828880857,5.986341242906732],[101.80407223909693,5.981019855776314],[101.80585686618974,5.978520416366571],[101.80983171744194,5.9772303831228335],[101.81072403098835,5.967797015027999],[101.81258977749448,5.964652558996388],[101.81267089690779,5.960621205109707],[101.81437440458731,5.957638003233563],[101.80918276213546,5.949494668382466],[101.80504567205665,5.945463314495785],[101.80699253797609,5.938932521199362],[101.8054512691232,5.93377238822441],[101.80496455264334,5.92820911986079],[101.80650582149623,5.9251452909069116],[101.80577574677643,5.920307666242895],[101.80893940389554,5.906197927639511],[101.8055323885365,5.900876540509091],[101.80204425376417,5.897328949088812],[101.80253097024404,5.8918463078029255],[101.80196313435086,5.882977329252227],[101.79993514901811,5.879107229521012],[101.79952955195155,5.8753983839452655],[101.79539246187274,5.869673861426179],[101.79758268603211,5.865642507539498],[101.80050298491128,5.863143068129755],[101.80488343323003,5.855644749900528],[101.80561350794981,5.852177785557982],[101.81048067274843,5.8449213485619556],[101.80966947861532,5.841696265452611],[101.81177858336139,5.838954944809668],[101.81080515040166,5.83298854105738],[101.81372544928082,5.827344645616026],[101.81632127050675,5.825006460361751],[101.81867373349274,5.8165406171997205],[101.81583455402689,5.812670517468506],[101.81770030053302,5.8029146410627375],[101.81372544928082,5.803559657684607],[101.81104850864159,5.802108370285402],[101.80399111968362,5.802188997363135],[101.80090858197782,5.798318897631921],[101.80131417904438,5.7909818335581615],[101.80577574677643,5.789691800314423],[101.81064291157504,5.782596617473865],[101.81031843392181,5.778968398975851],[101.81664574815998,5.775662688788773],[101.82191851002514,5.769131895492349],[101.82516328655755,5.7672774727044755],[101.82451433125107,5.764536152061533],[101.81948492762585,5.7541352590338954],[101.82362201770466,5.753409615334292],[101.82662343599713,5.747040076193336],[101.82784022719679,5.737929216409436],[101.82662343599713,5.734704133300092],[101.82386537594459,5.732365948045817],[101.82078283823881,5.733817235445022],[101.81745694229309,5.7330109646676854],[101.81486112106717,5.734623506222358],[101.814293285174,5.737848589331703],[101.80845268741567,5.743734366006258],[101.80374776144369,5.744379382628127],[101.80090858197782,5.746798194960135],[101.79936731312493,5.750265159302681],[101.7942567900864,5.751716446701886],[101.79247216299358,5.751071430080017],[101.78679380406187,5.75736034214324],[101.78216999750319,5.760988560641254],[101.77535596678514,5.768970641336882],[101.7742202949988,5.7740501472341],[101.77641051915818,5.783564142406668],[101.77373357851894,5.786547344282812],[101.76910977196026,5.788966156614821],[101.76635171190772,5.789127410770288],[101.76180902476236,5.794771306211642],[101.75288588929824,5.797109491465917],[101.74899215745936,5.794206916667506],[101.74436835090067,5.794206916667506],[101.74347603735427,5.789933681547624],[101.7405557384751,5.783483515328935],[101.73844663372904,5.78227410916293],[101.73244379714409,5.784612294417205],[101.73057805063796,5.783725396562136],[101.72571088583935,5.784612294417205],[101.72514304994618,5.781870973774262],[101.72246610930694,5.780339059297323],[101.71914021336123,5.788482394148419],[101.71662551154861,5.785660446427742],[101.71727446685509,5.780822821763725],[101.71516536210903,5.7646974062169996],[101.71273177970973,5.762278593884991],[101.70916252552408,5.761230441874454],[101.70632334605823,5.754941529811232],[101.70234849480603,5.753006479945625],[101.69707573294087,5.752764598712424],[101.69018058280952,5.756070308899502],[101.69115401576924,5.757924731687376],[101.68880155278325,5.764133016672865],[101.6900183439829,5.772276351523961],[101.68774700041021,5.780580940530524],[101.68636797038394,5.782354736240664],[101.67874274553279,5.781387211307861],[101.66892729652227,5.7904980710917595],[101.66998184889529,5.794932560367109],[101.66430348996359,5.800657082886197],[101.667548266496,5.807832892804489],[101.66430348996359,5.8137186694790435],[101.66251886287077,5.815008702722781],[101.65886848927181,5.812025500846637],[101.65724610100561,5.8186369212207945],[101.65748945924554,5.823635800040279],[101.65870625044519,5.825973985294555],[101.65846289220526,5.83411732014565],[101.65675938452574,5.838471182343266],[101.65943632516498,5.841696265452611],[101.66105871343119,5.848388312904502],[101.66016639988477,5.851935904324781],[101.65692162335236,5.85435471665679],[101.6556237127394,5.857418545610668],[101.6596796834049,5.864271847218026],[101.66211326580421,5.865400626306297],[101.66162654932435,5.868867590648843],[101.65886848927181,5.871850792524986],[101.6580572951387,5.875317756867532],[101.65416356329982,5.877655942121807],[101.64694393551522,5.874511486090196],[101.64159005423676,5.870238250970314],[101.6379396806378,5.870883267592183],[101.63112564991975,5.8753983839452655],[101.62317594741536,5.876930298422205],[101.6218780368024,5.885073633273301],[101.62252699210887,5.889588749626384],[101.62204027562902,5.895313272145471],[101.61765982731026,5.896442051233742],[101.62058012618944,5.901037794664559],[101.6274752763208,5.906681690105912],[101.6308011722665,5.906762317183646],[101.63274803818595,5.909100502437921],[101.63647953119822,5.9094230107488555],[101.63818303887773,5.9120030772363314],[101.63672288943815,5.916598820667148],[101.64110333775689,5.922807105652637],[101.64223900954323,5.927241594927986],[101.64613274138212,5.925790307528781],[101.6483229655415,5.928289746938523],[101.65108102559404,5.934578659001746],[101.65221669738038,5.941512587686837],[101.6499453538077,5.9434476375524445],[101.65067542852749,5.9486077705273965],[101.65278453327355,5.951913480714476],[101.65124326442066,5.956428597067558],[101.65513699625954,5.957154240767161],[101.65943632516498,5.96070183218744],[101.66089647460456,5.9673938796393315],[101.66592587822979,5.969087048271737],[101.66795386356254,5.9746503166353575],[101.67420005838743,5.9769885018896325],[101.67273990894785,5.979407314221641],[101.67338886425432,5.986744378295401],[101.67566020782701,5.988921309394208],[101.68060849203891,5.998919067033178],[101.68571901507745,5.998838439955445],[101.6909106575293,6.00230540429799],[101.69018058280952,6.006739893573339],[101.69472326995488,6.008594316361213],[101.69667013587433,6.014721974268968],[101.69602118056784,6.020365869710322],[101.69788692707398,6.02520349437434],[101.70015827064665,6.027944815017283],[101.70080722595314,6.0314117793598285],[101.70818909256437,6.037539437267584],[101.71346185442953,6.045763399196414],[101.71394857090938,6.047698449062021],[101.71175834675,6.0522941924928375],[101.71046043613704,6.059389375333396],[101.71029819731042,6.066162049863021],[101.71873461629468,6.0670489477180904],[101.71987028808101,6.071886572382108],[101.72562976642604,6.072209080693042],[101.72871230413182,6.071080301604772],[101.7326060359707,6.072047826537575],[101.73528297660994,6.074466638869584],[101.7356885736765,6.0780948573675975],[101.73455290189015,6.081803702943343],[101.73585081250312,6.08615756514096],[101.74047461906179,6.084141888197619],[101.7453417838604,6.083658125731217],[101.74923551569928,6.078659246911732],[101.7550761134576,6.080352415544138],[101.76270133830876,6.078578619833999],[101.76813633900053,6.078901128144933],[101.77170559318618,6.076804824123859],[101.77486925030529,6.077369213667994],[101.78517141579566,6.08639944637416],[101.79320223771337,6.086802581762829],[101.79677149189901,6.089302021172571],[101.79928619371162,6.087528225462431]]]}},{"type":"Feature","properties":{"district":"สุไหงโก-ลก","districtCode":"TH9610","province":"นราธิวาส"},"geometry":{"type":"Polygon","coordinates":[[[102.06405995875586,6.104863047175161],[102.0613018987033,6.102927997309553],[102.05919279395725,6.096800339401798],[102.06154525694325,6.091156443960444],[102.05830048041084,6.0907533085717755],[102.05740816686442,6.085351294363623],[102.05424450974533,6.0804330426218725],[102.04986406142659,6.079062382300401],[102.04378010542833,6.07414413055865],[102.03964301534951,6.073337859781313],[102.03461361172428,6.069548387127833],[102.03266674580485,6.071322182837973],[102.02990868575229,6.066645812329423],[102.02131002794142,6.060115019032999],[102.01952540084861,6.05213293833737],[102.01595614666296,6.053826106969776],[102.01190017599745,6.051084786326833],[102.00313927935996,6.049875380160828],[102.00419383173299,6.044150857641741],[102.00078681637396,6.042538316087069],[101.99819099514804,6.039474487133191],[101.99348606917606,6.040845147454663],[101.98772659083103,6.036894420645715],[101.98407621723207,6.032056795981697],[101.98415733664538,6.02987986488289],[101.97823561947375,6.027461052550881],[101.97612651472768,6.023268444508733],[101.97101599168914,6.017947057378313],[101.9722327828888,6.015044482579903],[101.9713404693424,6.010771247460021],[101.97255726054205,6.005611114485069],[101.9682579316366,6.003353556308528],[101.9673656180902,6.000773489821052],[101.96306628918475,5.995693983923833],[101.96055158737214,5.997145271323038],[101.95755016907967,5.993113917436357],[101.95268300428106,5.990936986337549],[101.9481403171357,5.990614478026615],[101.94156964465758,5.993839561135959],[101.93840598753849,5.996419627623435],[101.93743255457876,6.002466658453457],[101.93508009159277,6.006014249873737],[101.93045628503408,6.010126230838152],[101.92631919495527,6.015286363813104],[101.92453456786245,6.0156894992017715],[101.91544919357172,6.018430819844715],[101.91431352178537,6.023187817430999],[101.91804501479764,6.028670458716886],[101.9193429254106,6.03544313324651],[101.92583247847541,6.037136301878916],[101.93402553921973,6.0445539930304095],[101.93946053991151,6.052616700803772],[101.94262419703061,6.061405052276736],[101.94278643585723,6.0644688812306144],[101.93645912161904,6.079304263533602],[101.98553636667165,6.120907835644151],[102.0226890579677,6.151062362716527],[102.03088211871201,6.147676025451714],[102.04645704606756,6.144450942342369],[102.0508374943863,6.1425965195544965],[102.05026965849314,6.138081403201413],[102.0467815237208,6.1350982013252695],[102.04605144900101,6.1301799495835185],[102.05181092734603,6.1275998830960425],[102.05513682329175,6.120182191944549],[102.06405995875586,6.104863047175161]]]}},{"type":"Feature","properties":{"district":"สุไหงปาดี","districtCode":"TH9611","province":"นราธิวาส"},"geometry":{"type":"Polygon","coordinates":[[[101.91715270125123,6.277888755991517],[101.9177205371444,6.271116081461893],[101.91991076130377,6.267407235886147],[101.92437232903583,6.265310931865073],[101.9281038220481,6.261198950900657],[101.9313485985805,6.260231425967854],[101.9329709868467,6.2566032074698406],[101.9320786733003,6.253136243127295],[101.92648143378189,6.249266143396081],[101.93021292679416,6.24434789165433],[101.92867165794127,6.243138485488325],[101.92907725500781,6.237413962969239],[101.92664367260852,6.234511388170828],[101.92015411954371,6.233463236160291],[101.91918068658399,6.230641288439614],[101.99632524864191,6.169848471828462],[102.0226890579677,6.151062362716527],[101.98553636667165,6.120907835644151],[101.93645912161904,6.079304263533602],[101.94278643585723,6.0644688812306144],[101.94262419703061,6.061405052276736],[101.93946053991151,6.052616700803772],[101.93402553921973,6.0445539930304095],[101.92583247847541,6.037136301878916],[101.9193429254106,6.03544313324651],[101.91804501479764,6.028670458716886],[101.91431352178537,6.023187817430999],[101.91544919357172,6.018430819844715],[101.92453456786245,6.0156894992017715],[101.91447576061199,6.00028972735465],[101.91106874525298,5.995935865157034],[101.90344352040182,5.991662630037152],[101.89817075853666,5.984648074274327],[101.89054553368551,5.985534972129397],[101.88697627949986,5.985131836740728],[101.88356926414085,5.987711903228204],[101.87716083048934,5.990533850948881],[101.87180694921088,5.994484577757829],[101.86815657561192,5.986421869984467],[101.86199150020035,5.983519295186056],[101.85590754420208,5.984889955507527],[101.8464165728448,5.990372596793414],[101.83944030330014,5.989566326016078],[101.83051716783602,5.9868250053731344],[101.82386537594459,5.992872036203156],[101.8222429876784,5.992549527892222],[101.8175380617064,5.986421869984467],[101.81834925583951,5.983358041030589],[101.81664574815998,5.979729822532575],[101.80983171744194,5.9772303831228335],[101.80585686618974,5.978520416366571],[101.80407223909693,5.981019855776314],[101.803828880857,5.986341242906732],[101.79896171605839,5.988356919850073],[101.79944843253824,5.99408144236916],[101.801476417871,5.998677185799977],[101.80115194021776,6.002144150142523],[101.80358552261706,6.007465537272942],[101.80317992555051,6.01319005979203],[101.80139529845769,6.015286363813104],[101.80220649259078,6.023590952819667],[101.80058410432459,6.028347950405951],[101.79450014832634,6.034636862469173],[101.79944843253824,6.042860824398003],[101.80512679146996,6.047214686595619],[101.80999395626856,6.049794753083095],[101.81121074746821,6.053342344503374],[101.80942612037539,6.060437527343933],[101.80658694090954,6.065839541552086],[101.79847499957853,6.071644691148907],[101.79855611899184,6.077611094901195],[101.80253097024404,6.083174363264815],[101.79928619371162,6.087528225462431],[101.80829044858905,6.09841288095647],[101.80447783616347,6.113732025725859],[101.8055323885365,6.119214667011745],[101.80504567205665,6.124132918753497],[101.80723589621601,6.1268742393964395],[101.81380656869413,6.1296961871171165],[101.82573112245072,6.137758894890479],[101.83976478095337,6.143725298642767],[101.8440641098588,6.146708500518911],[101.8512026182301,6.14912731285092],[101.85533970830892,6.156141868613745],[101.858503365428,6.157351274779749],[101.86142366430718,6.160898866200029],[101.86207261961366,6.169042201051125],[101.86434396318634,6.171299759227667],[101.86166702254711,6.1761373838916835],[101.85809776836146,6.179926856545165],[101.85704321598843,6.190892139116937],[101.86896776974501,6.190247122495069],[101.87148247155763,6.192343426516143],[101.87472724809004,6.198712965657099],[101.88527277182035,6.195326628392286],[101.8881119512862,6.1967779157914915],[101.89484486259094,6.205727521419924],[101.90117217682914,6.213064585493684],[101.90360575922844,6.22411049514319],[101.90425471453491,6.256441953314374],[101.91804501479764,6.25902201980185],[101.91682822359799,6.262730865377597],[101.91423240237206,6.262569611222129],[101.91163658114614,6.268858523285352],[101.9129344917591,6.272567368861099],[101.91098762583967,6.275550570737242],[101.91252889469256,6.277808128913784],[101.91715270125123,6.277888755991517]]]}},{"type":"Feature","properties":{"district":"จะแนะ","districtCode":"TH9612","province":"นราธิวาส"},"geometry":{"type":"Polygon","coordinates":[[[101.80188201493755,6.1296961871171165],[101.80504567205665,6.124132918753497],[101.8055323885365,6.119214667011745],[101.80447783616347,6.113732025725859],[101.80829044858905,6.09841288095647],[101.79928619371162,6.087528225462431],[101.79677149189901,6.089302021172571],[101.79320223771337,6.086802581762829],[101.78517141579566,6.08639944637416],[101.77486925030529,6.077369213667994],[101.77170559318618,6.076804824123859],[101.76813633900053,6.078901128144933],[101.76270133830876,6.078578619833999],[101.7550761134576,6.080352415544138],[101.74923551569928,6.078659246911732],[101.7453417838604,6.083658125731217],[101.74047461906179,6.084141888197619],[101.73585081250312,6.08615756514096],[101.73455290189015,6.081803702943343],[101.7356885736765,6.0780948573675975],[101.73528297660994,6.074466638869584],[101.7326060359707,6.072047826537575],[101.72871230413182,6.071080301604772],[101.72562976642604,6.072209080693042],[101.71987028808101,6.071886572382108],[101.71873461629468,6.0670489477180904],[101.71029819731042,6.066162049863021],[101.71046043613704,6.059389375333396],[101.71175834675,6.0522941924928375],[101.71394857090938,6.047698449062021],[101.71346185442953,6.045763399196414],[101.70818909256437,6.037539437267584],[101.70080722595314,6.0314117793598285],[101.70015827064665,6.027944815017283],[101.69788692707398,6.02520349437434],[101.69602118056784,6.020365869710322],[101.69667013587433,6.014721974268968],[101.69472326995488,6.008594316361213],[101.69018058280952,6.006739893573339],[101.6909106575293,6.00230540429799],[101.68571901507745,5.998838439955445],[101.68060849203891,5.998919067033178],[101.67566020782701,5.988921309394208],[101.67338886425432,5.986744378295401],[101.67273990894785,5.979407314221641],[101.67420005838743,5.9769885018896325],[101.66795386356254,5.9746503166353575],[101.66592587822979,5.969087048271737],[101.66089647460456,5.9673938796393315],[101.65943632516498,5.96070183218744],[101.65513699625954,5.957154240767161],[101.65124326442066,5.956428597067558],[101.65278453327355,5.951913480714476],[101.65067542852749,5.9486077705273965],[101.6499453538077,5.9434476375524445],[101.65221669738038,5.941512587686837],[101.65108102559404,5.934578659001746],[101.6483229655415,5.928289746938523],[101.64613274138212,5.925790307528781],[101.64223900954323,5.927241594927986],[101.64110333775689,5.922807105652637],[101.63672288943815,5.916598820667148],[101.63818303887773,5.9120030772363314],[101.63647953119822,5.9094230107488555],[101.63274803818595,5.909100502437921],[101.6308011722665,5.906762317183646],[101.6274752763208,5.906681690105912],[101.62058012618944,5.901037794664559],[101.61765982731026,5.896442051233742],[101.61490176725772,5.901360302975493],[101.61482064784441,5.911277433536728],[101.60881781125947,5.914905652034742],[101.59957019814212,5.912164331391798],[101.59429743627696,5.914905652034742],[101.58934915206504,5.918695124688222],[101.58707780849235,5.930789186348266],[101.5810749719074,5.934498031924012],[101.57499101590915,5.929982915570929],[101.57239519468322,5.92554842629558],[101.5690692987375,5.92466152844051],[101.55828041676726,5.91909826007689],[101.55406220727514,5.921194564097965],[101.55081743074273,5.920146412087427],[101.54002854877248,5.91909826007689],[101.53581033928036,5.914905652034742],[101.53264668216126,5.914502516646074],[101.52615712909645,5.909181129515654],[101.52356130787052,5.898699609410284],[101.5200731730982,5.90063465927589],[101.51780182952551,5.899828388498554],[101.51512488888628,5.903617861152035],[101.50814861934161,5.896925813700143],[101.50782414168836,5.8944263742904015],[101.50222690216997,5.889669376704117],[101.49971220035735,5.894668255523602],[101.49873876739764,5.89974776142082],[101.49354712494579,5.898377101099348],[101.48989675134683,5.901199048820025],[101.49216809491952,5.906036673484043],[101.49005899017345,5.914341262490606],[101.49233033374614,5.922242716108501],[101.49095130371987,5.926838459539318],[101.49005899017345,5.936674963022821],[101.49419608025227,5.941190079375903],[101.49719749854474,5.947882126827794],[101.49646742382495,5.951026582859406],[101.49176249785296,5.9495752954602],[101.49135690078641,5.953848530580082],[101.48616525833457,5.9563479699898245],[101.48462398948168,5.9615081029647765],[101.48551630302808,5.968845167038536],[101.48356943710864,5.971667114759213],[101.48421839241512,5.977794772666969],[101.47894563054996,5.9765047394232305],[101.4768365258039,5.9798104496103095],[101.47561973460425,5.98827629277234],[101.47399734633805,5.990211342637947],[101.47667428697729,5.994242696524628],[101.47821555583018,5.999080321188646],[101.477647719937,6.007304283117475],[101.48235264590899,6.012625670247894],[101.47927010820321,6.019156463544318],[101.47797219759025,6.01988210724392],[101.47732324228376,6.025929138073942],[101.4791889887899,6.028509204561418],[101.47797219759025,6.035201252013309],[101.47415958516467,6.039958249599593],[101.47797219759025,6.043505841019872],[101.4784589140701,6.048907855228025],[101.47643092873734,6.057776833778724],[101.47561973460425,6.065355779085684],[101.47059033097902,6.073902249325449],[101.48843660190725,6.074950401335986],[101.49654854323826,6.074789147180518],[101.50036115566384,6.0729347243926455],[101.50360593219624,6.068983997583698],[101.50311921571638,6.0623725772095405],[101.50579615635561,6.058099342089658],[101.50822973875492,6.058663731633794],[101.51163675411394,6.054067988202977],[101.51715287421904,6.0546323777471125],[101.51966757603165,6.059711883644331],[101.52291235256405,6.061405052276736],[101.52899630856231,6.067613337262226],[101.53118653272168,6.073095978548112],[101.53767608578649,6.075837299191056],[101.54457123591786,6.075917926268789],[101.55122302780929,6.075111655491453],[101.5553601178881,6.078497992756265],[101.56160631271298,6.078417365678532],[101.56558116396518,6.082287465409745],[101.567365791058,6.086883208840562],[101.57239519468322,6.088334496239767],[101.57604556828218,6.087205717151496],[101.58334631548009,6.092930239670584],[101.58878131617186,6.092527104281916],[101.5986778845957,6.093172120903785],[101.60151706406155,6.094059018758855],[101.60322057174106,6.096880966479532],[101.60638422886016,6.105911199185697],[101.60654646768678,6.115022058969597],[101.61327937899152,6.120101564866816],[101.61392833429801,6.127035493551907],[101.61628079728399,6.136871997035409],[101.61457728960448,6.1451765860419725],[101.61287378192497,6.149288567006387],[101.6154696031509,6.154771208292273],[101.62001229029626,6.157915664323885],[101.61993117088295,6.1606569849668285],[101.61749758848364,6.16493022008671],[101.62147243973584,6.172347911238203],[101.62520393274811,6.174927977725679],[101.6282864704539,6.180894381477968],[101.63015221696003,6.179120585767828],[101.6323424411194,6.173718571559675],[101.63866975535758,6.173960452792876],[101.6436180395695,6.177024281746754],[101.65408244388651,6.1864576498415875],[101.65708386217898,6.187747683085326],[101.66406013172366,6.187344547696657],[101.66633147529635,6.18605451445292],[101.66949513241543,6.188231445551727],[101.68004065614575,6.185248243675583],[101.68555677625083,6.184522599975981],[101.68945050808972,6.186296395686121],[101.6932631205153,6.1898439871064],[101.6973190911808,6.190166495417334],[101.70543103251181,6.188473326784928],[101.71183946616331,6.187828310163059],[101.71370521266945,6.184925735364649],[101.7116772273367,6.180249364856099],[101.71110939144353,6.175250486036614],[101.71402969032269,6.165413982553112],[101.71630103389538,6.163317678532038],[101.72270946754688,6.161302001588697],[101.72270946754688,6.159286324645357],[101.72595424407928,6.157270647702016],[101.72522416935949,6.154287445825872],[101.73041581181134,6.150417346094658],[101.73049693122465,6.144128434031435],[101.73325499127719,6.142435265399029],[101.73309275245057,6.139452063522885],[101.74193476850137,6.1344531847034],[101.74599073916687,6.125906714463636],[101.74866767980612,6.117602125457073],[101.7534537251914,6.115505821435999],[101.76026775590945,6.118085887923475],[101.75945656177636,6.123084766742959],[101.76278245772207,6.122117241810156],[101.76894753313364,6.124374799986697],[101.77276014555922,6.123246020898426],[101.77892522097079,6.132195626526859],[101.78054760923699,6.132921270226461],[101.78557701286222,6.128406153873378],[101.79352671536661,6.1327600160709945],[101.80188201493755,6.1296961871171165]]]}},{"type":"Feature","properties":{"district":"เจาะไอร้อง","districtCode":"TH9613","province":"นราธิวาส"},"geometry":{"type":"Polygon","coordinates":[[[101.91634150711813,6.283210143121937],[101.91715270125123,6.277888755991517],[101.91252889469256,6.277808128913784],[101.91098762583967,6.275550570737242],[101.9129344917591,6.272567368861099],[101.91163658114614,6.268858523285352],[101.91423240237206,6.262569611222129],[101.91682822359799,6.262730865377597],[101.91804501479764,6.25902201980185],[101.90425471453491,6.256441953314374],[101.90360575922844,6.22411049514319],[101.90117217682914,6.213064585493684],[101.89484486259094,6.205727521419924],[101.8881119512862,6.1967779157914915],[101.88527277182035,6.195326628392286],[101.87472724809004,6.198712965657099],[101.87148247155763,6.192343426516143],[101.86896776974501,6.190247122495069],[101.85704321598843,6.190892139116937],[101.85809776836146,6.179926856545165],[101.86166702254711,6.1761373838916835],[101.86434396318634,6.171299759227667],[101.86207261961366,6.169042201051125],[101.86142366430718,6.160898866200029],[101.858503365428,6.157351274779749],[101.85533970830892,6.156141868613745],[101.8512026182301,6.14912731285092],[101.8440641098588,6.146708500518911],[101.83976478095337,6.143725298642767],[101.82573112245072,6.137758894890479],[101.81380656869413,6.1296961871171165],[101.80723589621601,6.1268742393964395],[101.80504567205665,6.124132918753497],[101.80188201493755,6.1296961871171165],[101.80050298491128,6.135581963791671],[101.80317992555051,6.1449347048087715],[101.80334216437713,6.149288567006387],[101.79733932779219,6.15380368335947],[101.79117425238061,6.166300880408182],[101.7893896252878,6.172831673704605],[101.78890290880793,6.17758867129089],[101.79036305824751,6.185006362442382],[101.7838735051827,6.193714086837614],[101.7813588033701,6.2000836259785705],[101.78273783339637,6.210242637773007],[101.77146223494626,6.2202403954119765],[101.7678118613473,6.229512509351343],[101.76262021889545,6.232415084149753],[101.77089439905308,6.244025383343396],[101.77787066859776,6.24991116001795],[101.78095320630354,6.251281820339422],[101.79093089414069,6.260312053045587],[101.80342328379044,6.27482492703764],[101.82208074885177,6.298529287891325],[101.83019269018278,6.2983680337358585],[101.84203612452606,6.3009481002233345],[101.84722776697791,6.3030444042444085],[101.84893127465742,6.300786846067867],[101.85387955886934,6.2976423900362555],[101.86223485844027,6.298932423279994],[101.87797202462244,6.297239254647588],[101.88413710003401,6.2981261525026575],[101.88908538424593,6.3009481002233345],[101.89533157907081,6.300383710679199],[101.89744068381687,6.296110475559317],[101.90190225154893,6.295868594326116],[101.90474143101478,6.29240162998357],[101.9113121034929,6.28861215733009],[101.91634150711813,6.283210143121937]]]}}]}
