{"type":"FeatureCollection","features":[{"type":"Feature","properties":{"tambon":"บางนาค","tambonCode":"TH960101","district":"เมืองนราธิวาส","districtCode":"TH9601","province":"นราธิวาส"},"geometry":{"type":"Polygon","coordinates":[[[101.83137131600006,6.44634482500004],[101.82412099900006,6.447661035000067],[101.81467919500005,6.454650944000036],[101.81430132900005,6.437105139000039],[101.81273327500008,6.3973426100000665],[101.83071982900003,6.401473286000055],[101.83300416100008,6.404631499000061],[101.83223907200005,6.417419904000042],[101.84252430200007,6.419235701000048],[101.84339683500008,6.423116097000047],[101.82695061900006,6.427862298000036],[101.82652009000009,6.434169375000067],[101.83137131600006,6.44634482500004]]]}},{"type":"Feature","properties":{"tambon":"ลำภู","tambonCode":"TH960102","district":"เมืองนราธิวาส","districtCode":"TH9601","province":"นราธิวาส"},"geometry":{"type":"Polygon","coordinates":[[[101.83071982900003,6.401473286000055],[101.81273327500008,6.3973426100000665],[101.81430132900005,6.437105139000039],[101.77593224800006,6.43063316100006],[101.78348020600004,6.408570298000029],[101.78569375300003,6.402848635000055],[101.77795985400007,6.397335278000071],[101.78440885900005,6.383442874000025],[101.78450033200005,6.372051640000052],[101.79019880000004,6.360654468000064],[101.79094344200007,6.350934180000024],[101.80169478000005,6.34405416200002],[101.81187875900008,6.344924009000067],[101.82738036500007,6.3377309450000325],[101.84017734100007,6.333845995000047],[101.84084363600005,6.346861524000076],[101.82864112100003,6.363528407000047],[101.82761974000005,6.375758605000044],[101.82468636100003,6.390302070000075],[101.83071982900003,6.401473286000055]]]}},{"type":"Feature","properties":{"tambon":"มะนังตายอ","tambonCode":"TH960103","district":"เมืองนราธิวาส","districtCode":"TH9601","province":"นราธิวาส"},"geometry":{"type":"Polygon","coordinates":[[[101.79094344200007,6.350934180000024],[101.79019880000004,6.360654468000064],[101.78450033200005,6.372051640000052],[101.78440885900005,6.383442874000025],[101.77795985400007,6.397335278000071],[101.76780300900003,6.3925163670000416],[101.76917664300004,6.37984005900006],[101.75402368700009,6.372788501000059],[101.74798209600004,6.379420433000064],[101.73958094500006,6.380161514000065],[101.73499143400005,6.369517612000038],[101.72183471900007,6.366693318000046],[101.72394352800006,6.350470599000062],[101.72106031000004,6.347393670000031],[101.72971499200008,6.347176525000066],[101.75799369500004,6.331440891000057],[101.76243893700007,6.326926294000032],[101.79094344200007,6.350934180000024]]]}},{"type":"Feature","properties":{"tambon":"บางปอ","tambonCode":"TH960104","district":"เมืองนราธิวาส","districtCode":"TH9601","province":"นราธิวาส"},"geometry":{"type":"Polygon","coordinates":[[[101.84017734100007,6.333845995000047],[101.82738036500007,6.3377309450000325],[101.81187875900008,6.344924009000067],[101.80169478000005,6.34405416200002],[101.79094344200007,6.350934180000024],[101.76243893700007,6.326926294000032],[101.76627800200004,6.319279557000073],[101.76971496100003,6.307511198000043],[101.77668209700005,6.303733599000054],[101.79023691300006,6.308514886000069],[101.79636182500008,6.305409527000052],[101.80885411200006,6.3046223740000755],[101.82211605500004,6.298502015000054],[101.83019049700005,6.298369575000038],[101.84726196300005,6.303057469000066],[101.83784425000005,6.316467673000034],[101.83752014800007,6.326363849000074],[101.84017734100007,6.333845995000047]]]}},{"type":"Feature","properties":{"tambon":"กะลุวอ","tambonCode":"TH960105","district":"เมืองนราธิวาส","districtCode":"TH9601","province":"นราธิวาส"},"geometry":{"type":"Polygon","coordinates":[[[101.89994735000005,6.353213538000034],[101.89336652300005,6.3603202430000465],[101.88312145700007,6.375467722000053],[101.86412601100005,6.390599113000064],[101.85692411900004,6.390061094000032],[101.84214722400009,6.384325943000022],[101.82761974000005,6.375758605000044],[101.82864112100003,6.363528407000047],[101.84084363600005,6.346861524000076],[101.84017734100007,6.333845995000047],[101.83752014800007,6.326363849000074],[101.83784425000005,6.316467673000034],[101.84726196300005,6.303057469000066],[101.85389984300008,6.297680144000026],[101.86882592200004,6.2982413210000345],[101.87798766400005,6.297224842000048],[101.88912154900004,6.300957355000037],[101.89530118400006,6.30035009900007],[101.91135229400004,6.288620984000033],[101.91634903900007,6.2831757310000285],[101.91664386800005,6.297896298000069],[101.91559201400008,6.336617383000032],[101.90358720500006,6.345253151000065],[101.89994735000005,6.353213538000034]]]}},{"type":"Feature","properties":{"tambon":"กะลุวอเหนือ","tambonCode":"TH960106","district":"เมืองนราธิวาส","districtCode":"TH9601","province":"นราธิวาส"},"geometry":{"type":"Polygon","coordinates":[[[101.91879983200005,6.372850005000032],[101.90297342800005,6.390091661000042],[101.87488770500005,6.424320648000048],[101.84721448000005,6.432396444000062],[101.83137131600006,6.44634482500004],[101.82652009000009,6.434169375000067],[101.82695061900006,6.427862298000036],[101.84339683500008,6.423116097000047],[101.84252430200007,6.419235701000048],[101.83223907200005,6.417419904000042],[101.83300416100008,6.404631499000061],[101.83071982900003,6.401473286000055],[101.82468636100003,6.390302070000075],[101.82761974000005,6.375758605000044],[101.84214722400009,6.384325943000022],[101.85692411900004,6.390061094000032],[101.86412601100005,6.390599113000064],[101.88312145700007,6.375467722000053],[101.89336652300005,6.3603202430000465],[101.89994735000005,6.353213538000034],[101.89765483700006,6.36210548300005],[101.90149146700008,6.367478887000061],[101.90974040600008,6.36774981700006],[101.91879983200005,6.372850005000032]]]}},{"type":"Feature","properties":{"tambon":"โคกเคียน","tambonCode":"TH960107","district":"เมืองนราธิวาส","districtCode":"TH9601","province":"นราธิวาส"},"geometry":{"type":"Polygon","coordinates":[[[101.81467919500005,6.454650944000036],[101.80060908100006,6.470104936000041],[101.77358811300007,6.505495660000065],[101.75287254100004,6.534606452000048],[101.72484185400003,6.576857325000049],[101.70931256500006,6.568903285000033],[101.72283679300006,6.545046096000021],[101.71876733800008,6.54188681200003],[101.72026641000008,6.530461426000045],[101.72466468700009,6.523646382000038],[101.72715024500008,6.512755566000067],[101.72259206200005,6.510105531000022],[101.71593086700005,6.4999496260000456],[101.71569294200003,6.497182446000068],[101.73166643200005,6.4740006450000465],[101.74419170400006,6.45886095000003],[101.76719135800005,6.442450357000041],[101.77593224800006,6.43063316100006],[101.81430132900005,6.437105139000039],[101.81467919500005,6.454650944000036]]]}},{"type":"Feature","properties":{"tambon":"เจ๊ะเห","tambonCode":"TH960201","district":"ตากใบ","districtCode":"TH9602","province":"นราธิวาส"},"geometry":{"type":"Polygon","coordinates":[[[102.08393265000007,6.229564349000043],[102.09194462800008,6.236049883000021],[102.08904838600006,6.244874955000057],[102.06941912400004,6.256730539000046],[102.03158549700004,6.282782633000068],[102.02246350200005,6.274307691000047],[102.01564630400009,6.254820199000051],[102.02146480800008,6.249519455000041],[102.03824021100007,6.246728226000073],[102.04669515300009,6.240395370000044],[102.05556793900007,6.244392970000035],[102.06429753600008,6.2349803040000324],[102.06975059400008,6.237392625000041],[102.07526752100006,6.229958900000042],[102.08393265000007,6.229564349000043]]]}},{"type":"Feature","properties":{"tambon":"ไพรวัน","tambonCode":"TH960202","district":"ตากใบ","districtCode":"TH9602","province":"นราธิวาส"},"geometry":{"type":"Polygon","coordinates":[[[101.98055800900005,6.316520053000033],[101.94147731000004,6.347996214000034],[101.91879983200005,6.372850005000032],[101.90974040600008,6.36774981700006],[101.90149146700008,6.367478887000061],[101.89765483700006,6.36210548300005],[101.89994735000005,6.353213538000034],[101.90358720500006,6.345253151000065],[101.91559201400008,6.336617383000032],[101.91664386800005,6.297896298000069],[101.91634903900007,6.2831757310000285],[101.91712836600004,6.277851158000033],[101.91775549000005,6.27113120000007],[101.92437040100003,6.26527205900004],[101.94013264200004,6.259290219000036],[101.95620349700005,6.266856725000025],[101.96123619200006,6.264947999000071],[101.96948990800007,6.269399577000058],[101.97235359800004,6.260045974000036],[101.98671429500007,6.267545133000056],[101.98736248700004,6.2629348110000365],[102.00014421400004,6.262468006000063],[101.99871679600005,6.264560051000046],[102.00131018800005,6.282107790000055],[101.98600717200009,6.286947398000052],[101.97762330300009,6.294965739000077],[101.97723427700004,6.306203823000033],[101.98055800900005,6.316520053000033]]]}},{"type":"Feature","properties":{"tambon":"พร่อน","tambonCode":"TH960203","district":"ตากใบ","districtCode":"TH9602","province":"นราธิวาส"},"geometry":{"type":"Polygon","coordinates":[[[102.01564630400009,6.254820199000051],[102.00896767900008,6.256947456000034],[102.00564336000008,6.239008424000076],[102.00565111600008,6.22639620800004],[101.99603165600007,6.2216244190000225],[101.99140872900006,6.212200850000045],[101.97252574800007,6.188591584000051],[101.98734927800007,6.176910617000033],[102.00130374000008,6.1832554840000284],[102.01868999500005,6.183350573000041],[102.02619818600004,6.187561965000043],[102.03072161700004,6.195561514000076],[102.04187225800007,6.206015301000036],[102.04399107700004,6.215715887000044],[102.04130431400006,6.220367755000041],[102.04236345700008,6.229265532000056],[102.03862678300004,6.231802734000041],[102.03824021100007,6.246728226000073],[102.02146480800008,6.249519455000041],[102.01564630400009,6.254820199000051]]]}},{"type":"Feature","properties":{"tambon":"ศาลาใหม่","tambonCode":"TH960204","district":"ตากใบ","districtCode":"TH9602","province":"นราธิวาส"},"geometry":{"type":"Polygon","coordinates":[[[102.03158549700004,6.282782633000068],[102.00760861400005,6.298118049000038],[101.98055800900005,6.316520053000033],[101.97723427700004,6.306203823000033],[101.97762330300009,6.294965739000077],[101.98600717200009,6.286947398000052],[102.00131018800005,6.282107790000055],[101.99871679600005,6.264560051000046],[102.00014421400004,6.262468006000063],[102.00896767900008,6.256947456000034],[102.01564630400009,6.254820199000051],[102.02246350200005,6.274307691000047],[102.03158549700004,6.282782633000068]]]}},{"type":"Feature","properties":{"tambon":"บางขุนทอง","tambonCode":"TH960205","district":"ตากใบ","districtCode":"TH9602","province":"นราธิวาส"},"geometry":{"type":"Polygon","coordinates":[[[102.00014421400004,6.262468006000063],[101.98736248700004,6.2629348110000365],[101.98671429500007,6.267545133000056],[101.97235359800004,6.260045974000036],[101.96948990800007,6.269399577000058],[101.96123619200006,6.264947999000071],[101.95620349700005,6.266856725000025],[101.94013264200004,6.259290219000036],[101.92437040100003,6.26527205900004],[101.93137270200003,6.260221153000032],[101.93210733100005,6.253134275000036],[101.92652177600007,6.24923725900004],[101.92904201800008,6.237435447000053],[101.91919873800003,6.230605125000068],[101.97252574800007,6.188591584000051],[101.99140872900006,6.212200850000045],[101.99603165600007,6.2216244190000225],[102.00565111600008,6.22639620800004],[102.00564336000008,6.239008424000076],[102.00896767900008,6.256947456000034],[102.00014421400004,6.262468006000063]]]}},{"type":"Feature","properties":{"tambon":"เกาะสะท้อน","tambonCode":"TH960206","district":"ตากใบ","districtCode":"TH9602","province":"นราธิวาส"},"geometry":{"type":"Polygon","coordinates":[[[102.03824021100007,6.246728226000073],[102.03862678300004,6.231802734000041],[102.04236345700008,6.229265532000056],[102.04130431400006,6.220367755000041],[102.04399107700004,6.215715887000044],[102.04187225800007,6.206015301000036],[102.04780003500008,6.201718114000073],[102.05827539300009,6.198847930000056],[102.07157749200007,6.192441650000035],[102.07758052200006,6.198155080000049],[102.08030088600003,6.224384695000026],[102.08393265000007,6.229564349000043],[102.07526752100006,6.229958900000042],[102.06975059400008,6.237392625000041],[102.06429753600008,6.2349803040000324],[102.05556793900007,6.244392970000035],[102.04669515300009,6.240395370000044],[102.03824021100007,6.246728226000073]]]}},{"type":"Feature","properties":{"tambon":"นานาค","tambonCode":"TH960207","district":"ตากใบ","districtCode":"TH9602","province":"นราธิวาส"},"geometry":{"type":"Polygon","coordinates":[[[102.06406462100006,6.104892113000062],[102.07197920900006,6.112337822000029],[102.07934258500006,6.12306585500005],[102.08285692300007,6.136643630000037],[102.08860392700007,6.139615031000062],[102.09298763200007,6.148685489000059],[102.08559153800007,6.165734210000039],[102.07846083800007,6.172856611000043],[102.07024817800004,6.169377449000024],[102.06932636100004,6.163732208000056],[102.05604073100005,6.156856794000021],[102.04976062100008,6.14446001400006],[102.05028009200004,6.138121252000076],[102.04603599400008,6.130172673000061],[102.05177458200006,6.127602833000026],[102.06406462100006,6.104892113000062]]]}},{"type":"Feature","properties":{"tambon":"โฆษิต","tambonCode":"TH960208","district":"ตากใบ","districtCode":"TH9602","province":"นราธิวาส"},"geometry":{"type":"Polygon","coordinates":[[[102.07758052200006,6.198155080000049],[102.07157749200007,6.192441650000035],[102.05827539300009,6.198847930000056],[102.04780003500008,6.201718114000073],[102.04187225800007,6.206015301000036],[102.03072161700004,6.195561514000076],[102.02619818600004,6.187561965000043],[102.01868999500005,6.183350573000041],[102.00130374000008,6.1832554840000284],[101.98734927800007,6.176910617000033],[102.02270797500006,6.151056502000074],[102.03089718800004,6.147648042000071],[102.04976062100008,6.14446001400006],[102.05604073100005,6.156856794000021],[102.06932636100004,6.163732208000056],[102.07024817800004,6.169377449000024],[102.07846083800007,6.172856611000043],[102.08065835500008,6.180893858000047],[102.07758052200006,6.198155080000049]]]}},{"type":"Feature","properties":{"tambon":"บาเจาะ","tambonCode":"TH960301","district":"บาเจาะ","districtCode":"TH9603","province":"นราธิวาส"},"geometry":{"type":"Polygon","coordinates":[[[101.67859519000007,6.5302392860000396],[101.67184862000005,6.536519755000029],[101.65561957700004,6.5355744570000525],[101.65011587800007,6.530280923000021],[101.62525482300003,6.529335196000034],[101.60164441500007,6.524595203000047],[101.59351262400008,6.525678084000049],[101.59076258800008,6.512082323000072],[101.60487832600006,6.502194546000055],[101.60782077500005,6.496055807000062],[101.61521596100005,6.492562279000026],[101.63077002300008,6.494318480000061],[101.63569820500004,6.501923323000028],[101.64698081600005,6.49802154200006],[101.65152704800005,6.500916582000059],[101.67094953700007,6.499845765000032],[101.68399948300004,6.504505727000037],[101.68687513600008,6.511118939000028],[101.68418579500008,6.518422134000048],[101.68750800100008,6.523172829000032],[101.67859519000007,6.5302392860000396]]]}},{"type":"Feature","properties":{"tambon":"ลุโบะสาวอ","tambonCode":"TH960302","district":"บาเจาะ","districtCode":"TH9603","province":"นราธิวาส"},"geometry":{"type":"Polygon","coordinates":[[[101.72715024500008,6.512755566000067],[101.71414904500006,6.510423434000074],[101.70173575500007,6.516133178000075],[101.68687513600008,6.511118939000028],[101.68399948300004,6.504505727000037],[101.67094953700007,6.499845765000032],[101.65152704800005,6.500916582000059],[101.64698081600005,6.49802154200006],[101.63569820500004,6.501923323000028],[101.63077002300008,6.494318480000061],[101.61521596100005,6.492562279000026],[101.60782077500005,6.496055807000062],[101.60812608600008,6.491460762000031],[101.62470467200006,6.482544917000041],[101.63634355600004,6.472036279000065],[101.66472463900004,6.471942972000022],[101.68551536300004,6.479149093000046],[101.69450962100007,6.484348728000043],[101.71593086700005,6.4999496260000456],[101.72259206200005,6.510105531000022],[101.72715024500008,6.512755566000067]]]}},{"type":"Feature","properties":{"tambon":"กาเยาะมาตี","tambonCode":"TH960303","district":"บาเจาะ","districtCode":"TH9603","province":"นราธิวาส"},"geometry":{"type":"Polygon","coordinates":[[[101.67514972700008,6.57304954600005],[101.67052165300004,6.568949642000064],[101.65388386500007,6.564727062000031],[101.64096157600005,6.569147134000048],[101.63024351300004,6.5552060110000525],[101.62893123800006,6.549969228000066],[101.61129416800009,6.552992089000043],[101.59759046500005,6.553852278000022],[101.60887493000007,6.544232014000045],[101.60325391000003,6.534972750000065],[101.59351262400008,6.525678084000049],[101.60164441500007,6.524595203000047],[101.62525482300003,6.529335196000034],[101.65011587800007,6.530280923000021],[101.65561957700004,6.5355744570000525],[101.67184862000005,6.536519755000029],[101.67859519000007,6.5302392860000396],[101.67514972700008,6.57304954600005]]]}},{"type":"Feature","properties":{"tambon":"ปะลุกาสาเมาะ","tambonCode":"TH960304","district":"บาเจาะ","districtCode":"TH9603","province":"นราธิวาส"},"geometry":{"type":"Polygon","coordinates":[[[101.63468323000006,6.620832983000071],[101.63140115900006,6.635138712000071],[101.62022601400008,6.629344969000044],[101.61480112100008,6.629572824000036],[101.60615004400006,6.6317226140000685],[101.59915954400009,6.623557193000067],[101.58668031700006,6.626373642000033],[101.57697192800003,6.619399969000028],[101.57690055800003,6.6091148770000245],[101.57366406100004,6.601484407000044],[101.57914693600009,6.5926351510000245],[101.58777468000005,6.590132381000046],[101.59630428000008,6.581272401000035],[101.61955587600005,6.5815520780000725],[101.62582608900004,6.590432923000037],[101.63941236800008,6.598536717000059],[101.65202381800003,6.60233635700007],[101.64355582800005,6.620122770000023],[101.63468323000006,6.620832983000071]]]}},{"type":"Feature","properties":{"tambon":"บาเระเหนือ","tambonCode":"TH960305","district":"บาเจาะ","districtCode":"TH9603","province":"นราธิวาส"},"geometry":{"type":"Polygon","coordinates":[[[101.67514972700008,6.57304954600005],[101.66892866100005,6.573950068000045],[101.66133743900008,6.59307769000003],[101.65202381800003,6.60233635700007],[101.63941236800008,6.598536717000059],[101.62582608900004,6.590432923000037],[101.61955587600005,6.5815520780000725],[101.59630428000008,6.581272401000035],[101.59668353800004,6.577951546000065],[101.59243153100005,6.56560236200005],[101.59708501500006,6.56105745800005],[101.59759046500005,6.553852278000022],[101.61129416800009,6.552992089000043],[101.62893123800006,6.549969228000066],[101.63024351300004,6.5552060110000525],[101.64096157600005,6.569147134000048],[101.65388386500007,6.564727062000031],[101.67052165300004,6.568949642000064],[101.67514972700008,6.57304954600005]]]}},{"type":"Feature","properties":{"tambon":"บาเระใต้","tambonCode":"TH960306","district":"บาเจาะ","districtCode":"TH9603","province":"นราธิวาส"},"geometry":{"type":"Polygon","coordinates":[[[101.70113577200004,6.5689333670000565],[101.68786351800009,6.572813110000027],[101.67514972700008,6.57304954600005],[101.67859519000007,6.5302392860000396],[101.68750800100008,6.523172829000032],[101.68418579500008,6.518422134000048],[101.68687513600008,6.511118939000028],[101.70173575500007,6.516133178000075],[101.71414904500006,6.510423434000074],[101.72715024500008,6.512755566000067],[101.72466468700009,6.523646382000038],[101.72026641000008,6.530461426000045],[101.71876733800008,6.54188681200003],[101.72283679300006,6.545046096000021],[101.70931256500006,6.568903285000033],[101.70113577200004,6.5689333670000565]]]}},{"type":"Feature","properties":{"tambon":"ยี่งอ","tambonCode":"TH960401","district":"ยี่งอ","districtCode":"TH9604","province":"นราธิวาส"},"geometry":{"type":"Polygon","coordinates":[[[101.71980769800007,6.409051893000026],[101.70683432300007,6.408678292000047],[101.69522095500008,6.410795797000048],[101.68525083700007,6.4042644390000305],[101.68902216000004,6.395094708000045],[101.68475011700008,6.37168192200005],[101.68620984000006,6.355801191000069],[101.69965020000006,6.354790000000037],[101.72106031000004,6.347393670000031],[101.72394352800006,6.350470599000062],[101.72183471900007,6.366693318000046],[101.71724720200007,6.384437056000024],[101.71980769800007,6.409051893000026]]]}},{"type":"Feature","properties":{"tambon":"ละหาร","tambonCode":"TH960402","district":"ยี่งอ","districtCode":"TH9604","province":"นราธิวาส"},"geometry":{"type":"Polygon","coordinates":[[[101.78348020600004,6.408570298000029],[101.77093661500004,6.412356551000073],[101.76626554000006,6.40924078200004],[101.75189594700004,6.405510274000051],[101.74084246200005,6.409792113000037],[101.71980769800007,6.409051893000026],[101.71724720200007,6.384437056000024],[101.72183471900007,6.366693318000046],[101.73499143400005,6.369517612000038],[101.73958094500006,6.380161514000065],[101.74798209600004,6.379420433000064],[101.75402368700009,6.372788501000059],[101.76917664300004,6.37984005900006],[101.76780300900003,6.3925163670000416],[101.77795985400007,6.397335278000071],[101.78569375300003,6.402848635000055],[101.78348020600004,6.408570298000029]]]}},{"type":"Feature","properties":{"tambon":"จอเบาะ","tambonCode":"TH960403","district":"ยี่งอ","districtCode":"TH9604","province":"นราธิวาส"},"geometry":{"type":"Polygon","coordinates":[[[101.68525083700007,6.4042644390000305],[101.67423775900005,6.403839606000076],[101.66093399800008,6.398493522000024],[101.65346579400006,6.4003536350000445],[101.64352732000003,6.41053512600007],[101.62331560500007,6.400339063000047],[101.62850876000005,6.390288303000034],[101.62629483700005,6.3799523150000255],[101.63591660200007,6.368956227000069],[101.65084339500004,6.354741438000076],[101.66081279800005,6.3535036130000435],[101.67695132200004,6.358308990000069],[101.68620984000006,6.355801191000069],[101.68475011700008,6.37168192200005],[101.68902216000004,6.395094708000045],[101.68525083700007,6.4042644390000305]]]}},{"type":"Feature","properties":{"tambon":"ลุโบะบายะ","tambonCode":"TH960404","district":"ยี่งอ","districtCode":"TH9604","province":"นราธิวาส"},"geometry":{"type":"Polygon","coordinates":[[[101.69522095500008,6.410795797000048],[101.68145466000004,6.4248909980000235],[101.68084875000005,6.4414518990000715],[101.66064380900008,6.433091405000027],[101.64739089000005,6.4316279380000765],[101.64702138500007,6.420989624000072],[101.64352732000003,6.41053512600007],[101.65346579400006,6.4003536350000445],[101.66093399800008,6.398493522000024],[101.67423775900005,6.403839606000076],[101.68525083700007,6.4042644390000305],[101.69522095500008,6.410795797000048]]]}},{"type":"Feature","properties":{"tambon":"ลุโบะบือซา","tambonCode":"TH960405","district":"ยี่งอ","districtCode":"TH9604","province":"นราธิวาส"},"geometry":{"type":"Polygon","coordinates":[[[101.78348020600004,6.408570298000029],[101.77593224800006,6.43063316100006],[101.76719135800005,6.442450357000041],[101.74419170400006,6.45886095000003],[101.73166643200005,6.4740006450000465],[101.70052552900006,6.451292714000033],[101.68084875000005,6.4414518990000715],[101.68145466000004,6.4248909980000235],[101.69522095500008,6.410795797000048],[101.70683432300007,6.408678292000047],[101.71980769800007,6.409051893000026],[101.74084246200005,6.409792113000037],[101.75189594700004,6.405510274000051],[101.76626554000006,6.40924078200004],[101.77093661500004,6.412356551000073],[101.78348020600004,6.408570298000029]]]}},{"type":"Feature","properties":{"tambon":"ตะปอเยาะ","tambonCode":"TH960406","district":"ยี่งอ","districtCode":"TH9604","province":"นราธิวาส"},"geometry":{"type":"Polygon","coordinates":[[[101.73166643200005,6.4740006450000465],[101.71569294200003,6.497182446000068],[101.71593086700005,6.4999496260000456],[101.69450962100007,6.484348728000043],[101.68551536300004,6.479149093000046],[101.66472463900004,6.471942972000022],[101.63634355600004,6.472036279000065],[101.63320053400008,6.460895997000023],[101.63800264300005,6.439449317000026],[101.64739089000005,6.4316279380000765],[101.66064380900008,6.433091405000027],[101.68084875000005,6.4414518990000715],[101.70052552900006,6.451292714000033],[101.73166643200005,6.4740006450000465]]]}},{"type":"Feature","properties":{"tambon":"ตันหยงมัส","tambonCode":"TH960501","district":"ระแงะ","districtCode":"TH9605","province":"นราธิวาส"},"geometry":{"type":"Polygon","coordinates":[[[101.72106031000004,6.347393670000031],[101.69965020000006,6.354790000000037],[101.69781777900005,6.345892112000058],[101.70098419400006,6.332792571000027],[101.70281188700005,6.313323738000065],[101.70765812600007,6.3081979220000335],[101.70332365000007,6.303096678000031],[101.70302847500005,6.292603260000021],[101.70534780700007,6.2818865080000705],[101.71173281800009,6.27626331700003],[101.71761936600006,6.260721424000053],[101.73905329800004,6.262133154000026],[101.73556792500005,6.270758345000047],[101.73929964600006,6.2816367860000355],[101.73982082900005,6.291038047000029],[101.76627800200004,6.319279557000073],[101.76243893700007,6.326926294000032],[101.75799369500004,6.331440891000057],[101.72971499200008,6.347176525000066],[101.72106031000004,6.347393670000031]]]}},{"type":"Feature","properties":{"tambon":"ตันหยงลิมอ","tambonCode":"TH960502","district":"ระแงะ","districtCode":"TH9605","province":"นราธิวาส"},"geometry":{"type":"Polygon","coordinates":[[[101.82211605500004,6.298502015000054],[101.80885411200006,6.3046223740000755],[101.79636182500008,6.305409527000052],[101.79023691300006,6.308514886000069],[101.77668209700005,6.303733599000054],[101.76971496100003,6.307511198000043],[101.76627800200004,6.319279557000073],[101.73982082900005,6.291038047000029],[101.73929964600006,6.2816367860000355],[101.73556792500005,6.270758345000047],[101.73905329800004,6.262133154000026],[101.76088327000008,6.254170997000074],[101.76969404800008,6.249424790000035],[101.77786883400006,6.2498968430000446],[101.79094559000004,6.260282399000062],[101.82211605500004,6.298502015000054]]]}},{"type":"Feature","properties":{"tambon":"บองอ","tambonCode":"TH960506","district":"ระแงะ","districtCode":"TH9605","province":"นราธิวาส"},"geometry":{"type":"Polygon","coordinates":[[[101.77786883400006,6.2498968430000446],[101.76969404800008,6.249424790000035],[101.76088327000008,6.254170997000074],[101.73905329800004,6.262133154000026],[101.71761936600006,6.260721424000053],[101.70116456900007,6.2546390030000225],[101.70052680700007,6.245287288000043],[101.69348792600005,6.216600487000051],[101.68750088400009,6.213805965000063],[101.67195143700008,6.188647935000063],[101.68558024800006,6.18450695100006],[101.69323228800005,6.189846113000044],[101.71181701000006,6.187861445000067],[101.71286002200009,6.170464870000046],[101.71402880100004,6.165382711000063],[101.72272546300007,6.161335845000053],[101.73043649800007,6.15039487100006],[101.73309700200008,6.139451282000039],[101.74189592700009,6.1344561100000305],[101.74863762500007,6.117584996000062],[101.75343134300005,6.115496244000042],[101.76278132800007,6.122123596000051],[101.77272723700008,6.123266196000031],[101.77888929600005,6.132234608000033],[101.78555712500008,6.128380058000062],[101.79353668300007,6.132768314000032],[101.80185691300005,6.129716704000032],[101.80053219800004,6.1356130800000415],[101.80335842100004,6.149278007000021],[101.79734287500008,6.153816462000066],[101.79115689600007,6.166309192000028],[101.78887842400007,6.177621611000063],[101.79034740900005,6.184970803000056],[101.78385895600007,6.193750894000061],[101.78132288900008,6.200089523000031],[101.78277141800004,6.210248525000054],[101.77148737200008,6.220212683000057],[101.76778616000007,6.22948251300005],[101.76265623100005,6.232389278000028],[101.77087997300004,6.244004950000033],[101.77786883400006,6.2498968430000446]]]}},{"type":"Feature","properties":{"tambon":"กาลิซา","tambonCode":"TH960507","district":"ระแงะ","districtCode":"TH9605","province":"นราธิวาส"},"geometry":{"type":"Polygon","coordinates":[[[101.66949880600004,6.267598478000025],[101.65505291200009,6.269414225000048],[101.63454029900004,6.269932853000057],[101.61791789600005,6.276512108000077],[101.60617813600004,6.2783102490000715],[101.61257913600008,6.262580046000039],[101.60925505300008,6.253207657000075],[101.61931615200007,6.241035662000058],[101.61587181100003,6.229717746000063],[101.61215994700007,6.2210280830000215],[101.62070809200009,6.209549036000055],[101.63327738700008,6.199850268000034],[101.62980200100009,6.1929196800000454],[101.62828762800007,6.180893811000033],[101.63236308900008,6.173694683000065],[101.63870287700007,6.173965352000039],[101.65406800900007,6.186485431000051],[101.66632012000008,6.186031342000035],[101.67195143700008,6.188647935000063],[101.68750088400009,6.213805965000063],[101.69348792600005,6.216600487000051],[101.70052680700007,6.245287288000043],[101.70116456900007,6.2546390030000225],[101.69173855300005,6.255094606000057],[101.68404898400007,6.266015664000065],[101.66949880600004,6.267598478000025]]]}},{"type":"Feature","properties":{"tambon":"บาโงสะโต","tambonCode":"TH960508","district":"ระแงะ","districtCode":"TH9605","province":"นราธิวาส"},"geometry":{"type":"Polygon","coordinates":[[[101.71761936600006,6.260721424000053],[101.71173281800009,6.27626331700003],[101.70534780700007,6.2818865080000705],[101.70302847500005,6.292603260000021],[101.70332365000007,6.303096678000031],[101.70765812600007,6.3081979220000335],[101.70281188700005,6.313323738000065],[101.69108975600005,6.308969584000067],[101.67661838600009,6.307852445000037],[101.66976064500005,6.3014557960000275],[101.66236880800005,6.28989780400002],[101.67295736500006,6.282486790000064],[101.66949880600004,6.267598478000025],[101.68404898400007,6.266015664000065],[101.69173855300005,6.255094606000057],[101.70116456900007,6.2546390030000225],[101.71761936600006,6.260721424000053]]]}},{"type":"Feature","properties":{"tambon":"เฉลิม","tambonCode":"TH960509","district":"ระแงะ","districtCode":"TH9605","province":"นราธิวาส"},"geometry":{"type":"Polygon","coordinates":[[[101.68620984000006,6.355801191000069],[101.67695132200004,6.358308990000069],[101.67180511600009,6.335554658000035],[101.66854012200008,6.329739447000065],[101.65360363200006,6.323254165000037],[101.62314316700008,6.314427724000041],[101.61286007700005,6.3142868580000595],[101.60150252500006,6.318934076000062],[101.60099134600006,6.317841720000047],[101.60165614700009,6.308711728000048],[101.59353769600006,6.303496218000021],[101.59345752000007,6.293069833000061],[101.60551876500006,6.286134410000045],[101.60617813600004,6.2783102490000715],[101.61791789600005,6.276512108000077],[101.63454029900004,6.269932853000057],[101.65505291200009,6.269414225000048],[101.66949880600004,6.267598478000025],[101.67295736500006,6.282486790000064],[101.66236880800005,6.28989780400002],[101.66976064500005,6.3014557960000275],[101.67661838600009,6.307852445000037],[101.69108975600005,6.308969584000067],[101.70281188700005,6.313323738000065],[101.70098419400006,6.332792571000027],[101.69781777900005,6.345892112000058],[101.69965020000006,6.354790000000037],[101.68620984000006,6.355801191000069]]]}},{"type":"Feature","properties":{"tambon":"มะรือโบตก","tambonCode":"TH960510","district":"ระแงะ","districtCode":"TH9605","province":"นราธิวาส"},"geometry":{"type":"Polygon","coordinates":[[[101.63591660200007,6.368956227000069],[101.62756862900005,6.371189869000034],[101.62266910400007,6.3646562190000395],[101.61415361700006,6.366011136000054],[101.60554309500009,6.358537421000051],[101.61080477200005,6.352575707000028],[101.61331973100005,6.337848428000029],[101.60483301500005,6.329843720000042],[101.60150252500006,6.318934076000062],[101.61286007700005,6.3142868580000595],[101.62314316700008,6.314427724000041],[101.65360363200006,6.323254165000037],[101.66854012200008,6.329739447000065],[101.67180511600009,6.335554658000035],[101.67695132200004,6.358308990000069],[101.66081279800005,6.3535036130000435],[101.65084339500004,6.354741438000076],[101.63591660200007,6.368956227000069]]]}},{"type":"Feature","properties":{"tambon":"รือเสาะ","tambonCode":"TH960601","district":"รือเสาะ","districtCode":"TH9606","province":"นราธิวาส"},"geometry":{"type":"Polygon","coordinates":[[[101.55489538400008,6.362347143000022],[101.55598919100004,6.371518700000024],[101.54177742700006,6.367546324000045],[101.53347008900005,6.369647729000064],[101.52771047300007,6.37596446200007],[101.51254446500008,6.398660031000077],[101.51199269200004,6.409714768000072],[101.49675402600008,6.397923040000023],[101.47830032900004,6.396562369000037],[101.47152371500005,6.391210026000067],[101.46855973900006,6.381865391000076],[101.47519242800007,6.376675821000049],[101.48570982800004,6.351546978000044],[101.49229586900003,6.353071911000029],[101.48900654200008,6.341535016000023],[101.50529479200009,6.326292159000047],[101.50552334200006,6.324179897000022],[101.51869351200008,6.311155124000038],[101.53211911000005,6.3137579810000375],[101.54309433800006,6.325053530000048],[101.53703249400007,6.341140962000054],[101.54077058800004,6.348308059000033],[101.55023727500009,6.353690253000025],[101.55489538400008,6.362347143000022]]]}},{"type":"Feature","properties":{"tambon":"สาวอ","tambonCode":"TH960602","district":"รือเสาะ","districtCode":"TH9606","province":"นราธิวาส"},"geometry":{"type":"Polygon","coordinates":[[[101.50761612900004,6.451294603000065],[101.49391338900006,6.4567980750000515],[101.48670637100008,6.462899035000021],[101.46301069000003,6.465804682000055],[101.46449973500006,6.442651191000039],[101.46981464600003,6.428918632000034],[101.47747402000005,6.422763928000052],[101.47333162100006,6.407611347000056],[101.46638749500005,6.39956774500007],[101.47152371500005,6.391210026000067],[101.47830032900004,6.396562369000037],[101.49675402600008,6.397923040000023],[101.51199269200004,6.409714768000072],[101.52173707200006,6.40918341400004],[101.52994538800004,6.416869581000071],[101.53860325200009,6.421550553000031],[101.54267415400005,6.4190015650000305],[101.54803219000007,6.425025523000045],[101.53927928000007,6.442164642000023],[101.51876750300005,6.44954386400002],[101.50761612900004,6.451294603000065]]]}},{"type":"Feature","properties":{"tambon":"เรียง","tambonCode":"TH960603","district":"รือเสาะ","districtCode":"TH9606","province":"นราธิวาส"},"geometry":{"type":"Polygon","coordinates":[[[101.46981464600003,6.428918632000034],[101.46255835100004,6.424580318000039],[101.45735747000003,6.431737522000049],[101.44281766400007,6.428228078000075],[101.43492961000004,6.429239558000063],[101.42488644300005,6.422483691000025],[101.42487824200003,6.415140671000074],[101.41984325000004,6.402888141000062],[101.41193173700003,6.395844905000047],[101.41953894500006,6.390176577000034],[101.41700855500005,6.3726884990000485],[101.39860018600007,6.359535848000064],[101.39758673800009,6.35102345100006],[101.38907332800005,6.34041030700007],[101.41107886700007,6.34257314000007],[101.41977482900006,6.353997788000072],[101.42500819000009,6.364196181000068],[101.43701518200004,6.363000843000066],[101.45717757900007,6.371919133000063],[101.46373044900008,6.380966085000068],[101.46855973900006,6.381865391000076],[101.47152371500005,6.391210026000067],[101.46638749500005,6.39956774500007],[101.47333162100006,6.407611347000056],[101.47747402000005,6.422763928000052],[101.46981464600003,6.428918632000034]]]}},{"type":"Feature","properties":{"tambon":"สามัคคี","tambonCode":"TH960604","district":"รือเสาะ","districtCode":"TH9606","province":"นราธิวาส"},"geometry":{"type":"Polygon","coordinates":[[[101.64739089000005,6.4316279380000765],[101.63682777700006,6.428523023000025],[101.62439344700005,6.430239644000039],[101.60008106600009,6.44081075400004],[101.58253556500006,6.444708455000068],[101.57004006200003,6.442347881000046],[101.54978768100005,6.449020807000068],[101.54723677300007,6.443878246000054],[101.53927928000007,6.442164642000023],[101.54803219000007,6.425025523000045],[101.54267415400005,6.4190015650000305],[101.55473757200008,6.409876398000051],[101.57216882400007,6.405356463000032],[101.58024747600007,6.40739280300005],[101.59821999800005,6.407990598000026],[101.62026703700008,6.40260312700002],[101.62331560500007,6.400339063000047],[101.64352732000003,6.41053512600007],[101.64702138500007,6.420989624000072],[101.64739089000005,6.4316279380000765]]]}},{"type":"Feature","properties":{"tambon":"บาตง","tambonCode":"TH960605","district":"รือเสาะ","districtCode":"TH9606","province":"นราธิวาส"},"geometry":{"type":"Polygon","coordinates":[[[101.50552334200006,6.324179897000022],[101.50529479200009,6.326292159000047],[101.48900654200008,6.341535016000023],[101.49229586900003,6.353071911000029],[101.48570982800004,6.351546978000044],[101.47519242800007,6.376675821000049],[101.46855973900006,6.381865391000076],[101.46373044900008,6.380966085000068],[101.45717757900007,6.371919133000063],[101.43701518200004,6.363000843000066],[101.42500819000009,6.364196181000068],[101.41977482900006,6.353997788000072],[101.41107886700007,6.34257314000007],[101.38907332800005,6.34041030700007],[101.38779984700005,6.335564738000073],[101.38964269600007,6.326458957000057],[101.39975665700007,6.3177856620000625],[101.39979797600006,6.311308790000055],[101.39399286600008,6.2986442940000416],[101.41165874300003,6.303835165000066],[101.43364607100006,6.307696498000041],[101.43678166800004,6.30356404500003],[101.44615020200007,6.30430504900005],[101.45537810500008,6.312755490000029],[101.47478564000005,6.305256335000024],[101.49236035800004,6.307078706000027],[101.50352779600007,6.30545352200005],[101.49874748000008,6.3138773610000385],[101.49274415800005,6.318333596000059],[101.50552334200006,6.324179897000022]]]}},{"type":"Feature","properties":{"tambon":"ลาโละ","tambonCode":"TH960606","district":"รือเสาะ","districtCode":"TH9606","province":"นราธิวาส"},"geometry":{"type":"Polygon","coordinates":[[[101.63591660200007,6.368956227000069],[101.62629483700005,6.3799523150000255],[101.62850876000005,6.390288303000034],[101.62331560500007,6.400339063000047],[101.60501702100004,6.391323363000026],[101.60230166800005,6.387028117000057],[101.59391802300007,6.385230252000042],[101.58446594500003,6.376959032000059],[101.55489538400008,6.362347143000022],[101.55023727500009,6.353690253000025],[101.54077058800004,6.348308059000033],[101.53703249400007,6.341140962000054],[101.54309433800006,6.325053530000048],[101.54792352700008,6.32731872100004],[101.56296095200008,6.315692863000038],[101.57818460000004,6.312744945000077],[101.60099134600006,6.317841720000047],[101.60150252500006,6.318934076000062],[101.60483301500005,6.329843720000042],[101.61331973100005,6.337848428000029],[101.61080477200005,6.352575707000028],[101.60554309500009,6.358537421000051],[101.61415361700006,6.366011136000054],[101.62266910400007,6.3646562190000395],[101.62756862900005,6.371189869000034],[101.63591660200007,6.368956227000069]]]}},{"type":"Feature","properties":{"tambon":"รือเสาะออก","tambonCode":"TH960607","district":"รือเสาะ","districtCode":"TH9606","province":"นราธิวาส"},"geometry":{"type":"Polygon","coordinates":[[[101.54267415400005,6.4190015650000305],[101.53860325200009,6.421550553000031],[101.52994538800004,6.416869581000071],[101.52173707200006,6.40918341400004],[101.51199269200004,6.409714768000072],[101.51254446500008,6.398660031000077],[101.52771047300007,6.37596446200007],[101.53347008900005,6.369647729000064],[101.54177742700006,6.367546324000045],[101.55598919100004,6.371518700000024],[101.55489538400008,6.362347143000022],[101.58446594500003,6.376959032000059],[101.59391802300007,6.385230252000042],[101.60230166800005,6.387028117000057],[101.60501702100004,6.391323363000026],[101.62331560500007,6.400339063000047],[101.62026703700008,6.40260312700002],[101.59821999800005,6.407990598000026],[101.58024747600007,6.40739280300005],[101.57216882400007,6.405356463000032],[101.55473757200008,6.409876398000051],[101.54267415400005,6.4190015650000305]]]}},{"type":"Feature","properties":{"tambon":"โคกสะตอ","tambonCode":"TH960608","district":"รือเสาะ","districtCode":"TH9606","province":"นราธิวาส"},"geometry":{"type":"Polygon","coordinates":[[[101.50352779600007,6.30545352200005],[101.49236035800004,6.307078706000027],[101.47478564000005,6.305256335000024],[101.45537810500008,6.312755490000029],[101.44615020200007,6.30430504900005],[101.43678166800004,6.30356404500003],[101.43364607100006,6.307696498000041],[101.41165874300003,6.303835165000066],[101.39399286600008,6.2986442940000416],[101.39498886100006,6.286086872000055],[101.39962468300007,6.2819338820000326],[101.40265336800007,6.271177736000027],[101.40102462800007,6.259691625000073],[101.39515291900005,6.2454341410000325],[101.40337066800004,6.239744789000042],[101.39844426200006,6.23142746000002],[101.41063740400006,6.23487431500007],[101.41795842500005,6.24213308800006],[101.42829608600005,6.233025129000055],[101.43999187900005,6.231203020000066],[101.44378863000009,6.2404671310000595],[101.45110180300009,6.245957733000068],[101.45491233700005,6.258094580000034],[101.45922619100008,6.2595103290000225],[101.48425424900006,6.251769000000024],[101.49018004600003,6.2548217460000615],[101.48602080000006,6.262948960000074],[101.48665472000005,6.270665911000037],[101.49667471200007,6.2822629350000625],[101.49566883500006,6.288451375000022],[101.50577030900007,6.298380688000066],[101.50352779600007,6.30545352200005]]]}},{"type":"Feature","properties":{"tambon":"สุวารี","tambonCode":"TH960609","district":"รือเสาะ","districtCode":"TH9606","province":"นราธิวาส"},"geometry":{"type":"Polygon","coordinates":[[[101.59076258800008,6.512082323000072],[101.58474450200004,6.512373526000033],[101.57371160100007,6.498658522000028],[101.56343341100006,6.494867979000048],[101.56151694600004,6.4876827560000265],[101.55229094900005,6.481760751000024],[101.54270184100005,6.48044714200006],[101.53838330000008,6.473937077000073],[101.53578268400008,6.468427079000037],[101.52351012400004,6.465675395000062],[101.50761612900004,6.451294603000065],[101.51876750300005,6.44954386400002],[101.53927928000007,6.442164642000023],[101.54723677300007,6.443878246000054],[101.54978768100005,6.449020807000068],[101.57004006200003,6.442347881000046],[101.58253556500006,6.444708455000068],[101.60008106600009,6.44081075400004],[101.62439344700005,6.430239644000039],[101.63682777700006,6.428523023000025],[101.64739089000005,6.4316279380000765],[101.63800264300005,6.439449317000026],[101.63320053400008,6.460895997000023],[101.63634355600004,6.472036279000065],[101.62470467200006,6.482544917000041],[101.60812608600008,6.491460762000031],[101.60782077500005,6.496055807000062],[101.60487832600006,6.502194546000055],[101.59076258800008,6.512082323000072]]]}},{"type":"Feature","properties":{"tambon":"ซากอ","tambonCode":"TH960701","district":"ศรีสาคร","districtCode":"TH9607","province":"นราธิวาส"},"geometry":{"type":"Polygon","coordinates":[[[101.54205747900005,6.251746805000039],[101.53313509700007,6.251196779000054],[101.52001417800005,6.261940579000054],[101.50366630700006,6.260161715000038],[101.49018004600003,6.2548217460000615],[101.49514011300005,6.247371951000048],[101.49090159100007,6.233265060000065],[101.50071319700004,6.226279005000038],[101.50580191600005,6.215311987000064],[101.50420077800004,6.210629381000047],[101.51079220800005,6.196046848000037],[101.52195950700008,6.203628553000044],[101.52957294100008,6.20384589300005],[101.54451685600009,6.196741917000054],[101.55542578600006,6.195470540000031],[101.56656336300006,6.189806788000055],[101.58191953900007,6.2025240610000765],[101.58569535000004,6.210163587000068],[101.59467401400008,6.21284266300006],[101.61215994700007,6.2210280830000215],[101.61587181100003,6.229717746000063],[101.60649792500004,6.231221371000061],[101.59832822300007,6.236093761000063],[101.59469680600006,6.23347564900007],[101.58697686600004,6.238486323000075],[101.57925661700006,6.240008009000064],[101.57155963300005,6.2504742040000565],[101.55790462200008,6.252288411000052],[101.54787342000009,6.24981116400005],[101.54205747900005,6.251746805000039]]]}},{"type":"Feature","properties":{"tambon":"ตะมะยูง","tambonCode":"TH960702","district":"ศรีสาคร","districtCode":"TH9607","province":"นราธิวาส"},"geometry":{"type":"Polygon","coordinates":[[[101.53211911000005,6.3137579810000375],[101.51869351200008,6.311155124000038],[101.50552334200006,6.324179897000022],[101.49274415800005,6.318333596000059],[101.49874748000008,6.3138773610000385],[101.50352779600007,6.30545352200005],[101.50577030900007,6.298380688000066],[101.49566883500006,6.288451375000022],[101.49667471200007,6.2822629350000625],[101.48665472000005,6.270665911000037],[101.48602080000006,6.262948960000074],[101.49018004600003,6.2548217460000615],[101.50366630700006,6.260161715000038],[101.52001417800005,6.261940579000054],[101.53313509700007,6.251196779000054],[101.54205747900005,6.251746805000039],[101.54478359400008,6.259629620000055],[101.54157968000004,6.276313218000041],[101.53063234100006,6.2945109790000515],[101.53329490500005,6.305284467000035],[101.53211911000005,6.3137579810000375]]]}},{"type":"Feature","properties":{"tambon":"ศรีสาคร","tambonCode":"TH960703","district":"ศรีสาคร","districtCode":"TH9607","province":"นราธิวาส"},"geometry":{"type":"Polygon","coordinates":[[[101.49018004600003,6.2548217460000615],[101.48425424900006,6.251769000000024],[101.45922619100008,6.2595103290000225],[101.46148046000008,6.239505764000057],[101.46743099300005,6.214659911000069],[101.47067362900003,6.186250571000073],[101.46872809200005,6.177981316000057],[101.45237270600006,6.174652402000049],[101.43995341300007,6.175717829000064],[101.42034819600008,6.174687189000053],[101.41480263800008,6.170330410000076],[101.41472596000006,6.162367890000041],[101.40971726600009,6.157244844000047],[101.41708670900005,6.143073135000066],[101.42745466000008,6.140555867000046],[101.42965812900007,6.129726409000057],[101.43540828500005,6.128782934000071],[101.43611327200006,6.116967754000029],[101.44097459200003,6.109463106000021],[101.43727505800007,6.096946002000038],[101.44654267200008,6.082091424000055],[101.46082584200008,6.077392815000053],[101.46675796300008,6.080252304000055],[101.47058598000007,6.073894192000068],[101.49653671400006,6.074814566000043],[101.50357225200008,6.068989533000035],[101.50308589700006,6.062332697000045],[101.51161357300003,6.054083436000042],[101.52903554600005,6.067594044000032],[101.53115715000007,6.073102838000068],[101.53768584000005,6.075844049000068],[101.55119546700007,6.075145485000064],[101.56157151000008,6.078444330000025],[101.56424423500005,6.086749638000072],[101.55506851800004,6.092614942000068],[101.55251366600004,6.106647749000047],[101.54131854300005,6.107212780000054],[101.53516850600005,6.112801158000025],[101.52953422300004,6.113106875000028],[101.53261815900004,6.133532917000025],[101.53754796500004,6.133659729000044],[101.53627362700007,6.150357566000025],[101.52566394600007,6.162259619000054],[101.52897224900005,6.172983294000062],[101.52119069300005,6.178166619000024],[101.52537339200006,6.18337254000005],[101.51775967100008,6.192475779000063],[101.51079220800005,6.196046848000037],[101.50420077800004,6.210629381000047],[101.50580191600005,6.215311987000064],[101.50071319700004,6.226279005000038],[101.49090159100007,6.233265060000065],[101.49514011300005,6.247371951000048],[101.49018004600003,6.2548217460000615]]]}},{"type":"Feature","properties":{"tambon":"เชิงคีรี","tambonCode":"TH960704","district":"ศรีสาคร","districtCode":"TH9607","province":"นราธิวาส"},"geometry":{"type":"Polygon","coordinates":[[[101.60099134600006,6.317841720000047],[101.57818460000004,6.312744945000077],[101.56296095200008,6.315692863000038],[101.54792352700008,6.32731872100004],[101.54309433800006,6.325053530000048],[101.53211911000005,6.3137579810000375],[101.53329490500005,6.305284467000035],[101.53063234100006,6.2945109790000515],[101.54157968000004,6.276313218000041],[101.54478359400008,6.259629620000055],[101.54205747900005,6.251746805000039],[101.54787342000009,6.24981116400005],[101.55790462200008,6.252288411000052],[101.57155963300005,6.2504742040000565],[101.57925661700006,6.240008009000064],[101.58697686600004,6.238486323000075],[101.59469680600006,6.23347564900007],[101.59832822300007,6.236093761000063],[101.60649792500004,6.231221371000061],[101.61587181100003,6.229717746000063],[101.61931615200007,6.241035662000058],[101.60925505300008,6.253207657000075],[101.61257913600008,6.262580046000039],[101.60617813600004,6.2783102490000715],[101.60551876500006,6.286134410000045],[101.59345752000007,6.293069833000061],[101.59353769600006,6.303496218000021],[101.60165614700009,6.308711728000048],[101.60099134600006,6.317841720000047]]]}},{"type":"Feature","properties":{"tambon":"กาหลง","tambonCode":"TH960705","district":"ศรีสาคร","districtCode":"TH9607","province":"นราธิวาส"},"geometry":{"type":"Polygon","coordinates":[[[101.40971726600009,6.157244844000047],[101.41472596000006,6.162367890000041],[101.41480263800008,6.170330410000076],[101.42034819600008,6.174687189000053],[101.43995341300007,6.175717829000064],[101.45237270600006,6.174652402000049],[101.46872809200005,6.177981316000057],[101.47067362900003,6.186250571000073],[101.46743099300005,6.214659911000069],[101.46148046000008,6.239505764000057],[101.45922619100008,6.2595103290000225],[101.45491233700005,6.258094580000034],[101.45110180300009,6.245957733000068],[101.44378863000009,6.2404671310000595],[101.43999187900005,6.231203020000066],[101.42829608600005,6.233025129000055],[101.41795842500005,6.24213308800006],[101.41063740400006,6.23487431500007],[101.39844426200006,6.23142746000002],[101.39451649700004,6.222866611000029],[101.37859050200007,6.214366741000049],[101.37136802900005,6.20952770100007],[101.38608761500006,6.181620320000036],[101.38674915900003,6.16737246100007],[101.39390589000004,6.159855831000073],[101.40971726600009,6.157244844000047]]]}},{"type":"Feature","properties":{"tambon":"ศรีบรรพต","tambonCode":"TH960706","district":"ศรีสาคร","districtCode":"TH9607","province":"นราธิวาส"},"geometry":{"type":"Polygon","coordinates":[[[101.62828762800007,6.180893811000033],[101.62980200100009,6.1929196800000454],[101.63327738700008,6.199850268000034],[101.62070809200009,6.209549036000055],[101.61215994700007,6.2210280830000215],[101.59467401400008,6.21284266300006],[101.58569535000004,6.210163587000068],[101.58191953900007,6.2025240610000765],[101.56656336300006,6.189806788000055],[101.55542578600006,6.195470540000031],[101.54451685600009,6.196741917000054],[101.52957294100008,6.20384589300005],[101.52195950700008,6.203628553000044],[101.51079220800005,6.196046848000037],[101.51775967100008,6.192475779000063],[101.52537339200006,6.18337254000005],[101.52119069300005,6.178166619000024],[101.52897224900005,6.172983294000062],[101.52566394600007,6.162259619000054],[101.53627362700007,6.150357566000025],[101.53754796500004,6.133659729000044],[101.53261815900004,6.133532917000025],[101.52953422300004,6.113106875000028],[101.53516850600005,6.112801158000025],[101.54131854300005,6.107212780000054],[101.55251366600004,6.106647749000047],[101.55506851800004,6.092614942000068],[101.56424423500005,6.086749638000072],[101.57602051000003,6.087228122000056],[101.58337674900008,6.09295378500002],[101.60155139300008,6.094079823000072],[101.60642080500008,6.105919555000071],[101.60657001600003,6.114985101000059],[101.61328296600004,6.120118110000021],[101.61626098800008,6.136865517000047],[101.61289864100007,6.149321637000071],[101.61999763300008,6.1578786250000235],[101.61750412600009,6.1649013450000325],[101.62828762800007,6.180893811000033]]]}},{"type":"Feature","properties":{"tambon":"แว้ง","tambonCode":"TH960801","district":"แว้ง","districtCode":"TH9608","province":"นราธิวาส"},"geometry":{"type":"Polygon","coordinates":[[[101.86584239400008,5.945693753000057],[101.84959694100007,5.944830252000031],[101.84401276000006,5.954600934000041],[101.81434465800004,5.95796027800003],[101.80508064200006,5.9454608020000705],[101.80697305900009,5.9389121250000585],[101.80497193400004,5.928212132000056],[101.80784239300004,5.9094862660000445],[101.82422492800004,5.909245118000058],[101.83578200200009,5.911239014000046],[101.85090180900005,5.92019586400005],[101.86268730600005,5.922843473000057],[101.87857898700008,5.923933133000048],[101.88386091700005,5.92651371900007],[101.89037393300003,5.927504050000039],[101.89751791700007,5.933354915000052],[101.91224978200006,5.935223984000061],[101.91659477600007,5.94619483300005],[101.90504081400007,5.942155017000061],[101.88136176200004,5.946758202000069],[101.86584239400008,5.945693753000057]]]}},{"type":"Feature","properties":{"tambon":"กายูคละ","tambonCode":"TH960802","district":"แว้ง","districtCode":"TH9608","province":"นราธิวาส"},"geometry":{"type":"Polygon","coordinates":[[[101.92974247100005,5.947510545000057],[101.93756322700006,5.948265466000066],[101.94449243200006,5.954829733000054],[101.94139235600005,5.959476168000037],[101.94085719400005,5.971390431000032],[101.94303524400004,5.981971815000065],[101.94816826500005,5.990587145000063],[101.93837235500007,5.996406317000037],[101.93743112200008,6.002489671000035],[101.92456490800004,6.015719499000056],[101.91110119300004,5.995972340000037],[101.89592755900009,5.984301038000069],[101.88701593600007,5.9851572160000615],[101.87179686600007,5.994478984000068],[101.86817458500008,5.986384878000024],[101.86268457200003,5.98385375600003],[101.86464010300006,5.980385849000072],[101.87473250600004,5.978476356000044],[101.86989637500005,5.965886216000058],[101.87031574600007,5.956291431000068],[101.86584239400008,5.945693753000057],[101.88136176200004,5.946758202000069],[101.90504081400007,5.942155017000061],[101.91659477600007,5.94619483300005],[101.92974247100005,5.947510545000057]]]}},{"type":"Feature","properties":{"tambon":"ฆอเลาะ","tambonCode":"TH960803","district":"แว้ง","districtCode":"TH9608","province":"นราธิวาส"},"geometry":{"type":"Polygon","coordinates":[[[101.92974247100005,5.947510545000057],[101.91659477600007,5.94619483300005],[101.91224978200006,5.935223984000061],[101.89751791700007,5.933354915000052],[101.89037393300003,5.927504050000039],[101.88386091700005,5.92651371900007],[101.88117883300004,5.901049703000069],[101.88558889000007,5.889479386000062],[101.88246831700008,5.877709735000053],[101.91107513700007,5.8775986170000465],[101.91744525800004,5.8680059010000605],[101.93586013700008,5.863097199000038],[101.94320512600007,5.872064641000065],[101.93918437700006,5.879390378000039],[101.94041408200007,5.885444733000043],[101.93347041100009,5.899774077000075],[101.93283057800005,5.906917128000032],[101.92547026800008,5.9086613480000665],[101.92122266400008,5.914635415000021],[101.92522991900006,5.92481417700003],[101.92904702700008,5.925913446000038],[101.93207247700008,5.944420108000031],[101.92974247100005,5.947510545000057]]]}},{"type":"Feature","properties":{"tambon":"โละจูด","tambonCode":"TH960804","district":"แว้ง","districtCode":"TH9608","province":"นราธิวาส"},"geometry":{"type":"Polygon","coordinates":[[[101.88558889000007,5.889479386000062],[101.84144994600007,5.888425372000029],[101.83948210900007,5.881716936000032],[101.82983957400006,5.87343284800005],[101.82414099800008,5.861120725000035],[101.81764158600004,5.855826379000064],[101.80962336200008,5.842222094000022],[101.81077957400004,5.832985192000024],[101.81628756600009,5.825006239000061],[101.81868012400008,5.816511485000035],[101.81579487100004,5.812695891000033],[101.81771073600004,5.80289278500004],[101.80400711000004,5.802164608000055],[101.80082291600007,5.79463830800006],[101.81662113400006,5.775647118000052],[101.82516801800006,5.767311993000021],[101.83636774100006,5.789444870000068],[101.84209969200003,5.791289190000043],[101.86295008400003,5.791643148000048],[101.86414048100005,5.803444169000045],[101.87597100400006,5.805357020000031],[101.87965234700005,5.816305180000029],[101.87689527000003,5.820168545000058],[101.88003755800008,5.83212764600006],[101.88692878300009,5.839159962000053],[101.89542521100009,5.843934671000056],[101.90524002400008,5.841385828000057],[101.91727024200009,5.843021042000032],[101.93003731000005,5.853854545000047],[101.93586013700008,5.863097199000038],[101.91744525800004,5.8680059010000605],[101.91107513700007,5.8775986170000465],[101.88246831700008,5.877709735000053],[101.88558889000007,5.889479386000062]]]}},{"type":"Feature","properties":{"tambon":"แม่ดง","tambonCode":"TH960805","district":"แว้ง","districtCode":"TH9608","province":"นราธิวาส"},"geometry":{"type":"Polygon","coordinates":[[[101.88386091700005,5.92651371900007],[101.87857898700008,5.923933133000048],[101.86268730600005,5.922843473000057],[101.85090180900005,5.92019586400005],[101.83578200200009,5.911239014000046],[101.82422492800004,5.909245118000058],[101.80784239300004,5.9094862660000445],[101.80208199300006,5.8972922190000645],[101.80192880700008,5.882943031000025],[101.79542202600004,5.869658564000076],[101.80488437200006,5.855620406000071],[101.80962336200008,5.842222094000022],[101.81764158600004,5.855826379000064],[101.82414099800008,5.861120725000035],[101.82983957400006,5.87343284800005],[101.83948210900007,5.881716936000032],[101.84144994600007,5.888425372000029],[101.88558889000007,5.889479386000062],[101.88117883300004,5.901049703000069],[101.88386091700005,5.92651371900007]]]}},{"type":"Feature","properties":{"tambon":"เอราวัณ","tambonCode":"TH960806","district":"แว้ง","districtCode":"TH9608","province":"นราธิวาส"},"geometry":{"type":"Polygon","coordinates":[[[101.86268457200003,5.98385375600003],[101.85589726000006,5.984895431000041],[101.84639112300005,5.990401676000033],[101.83052260700003,5.98681031600006],[101.82383695800007,5.992872080000041],[101.81757023900008,5.986398137000037],[101.81662129400007,5.979753908000021],[101.80981812700009,5.97719889800004],[101.81243325100007,5.962967883000033],[101.81434465800004,5.95796027800003],[101.84401276000006,5.954600934000041],[101.84959694100007,5.944830252000031],[101.86584239400008,5.945693753000057],[101.87031574600007,5.956291431000068],[101.86989637500005,5.965886216000058],[101.87473250600004,5.978476356000044],[101.86464010300006,5.980385849000072],[101.86268457200003,5.98385375600003]]]}},{"type":"Feature","properties":{"tambon":"มาโมง","tambonCode":"TH960901","district":"สุคิริน","districtCode":"TH9609","province":"นราธิวาส"},"geometry":{"type":"Polygon","coordinates":[[[101.81434465800004,5.95796027800003],[101.81243325100007,5.962967883000033],[101.78869856600005,5.956687278000061],[101.78082617300004,5.957480416000067],[101.77608112300004,5.950358562000076],[101.77625666800009,5.9431410960000335],[101.76658407900004,5.9285958060000326],[101.76828603200005,5.924550792000048],[101.76124130600004,5.916681577000077],[101.74606307900007,5.912806962000047],[101.74659747000004,5.907366816000035],[101.73796192900005,5.903495021000026],[101.72886885600008,5.908452650000072],[101.72795302900005,5.912978152000051],[101.71750216800007,5.9133394600000315],[101.71368026100004,5.905588518000059],[101.70648700800007,5.898698220000028],[101.69501328300004,5.89397185200005],[101.69824033400005,5.915231120000044],[101.68437905200005,5.921364168000025],[101.67006832000004,5.917505102000064],[101.66008267400008,5.9246904890000565],[101.64618286800004,5.925843115000021],[101.63671410600006,5.916607939000073],[101.63647430100008,5.90945789400007],[101.62749176000005,5.906647011000075],[101.61768585900006,5.896407322000073],[101.62205718900003,5.89529385000003],[101.62314042800006,5.876949646000071],[101.64162729900005,5.870239542000036],[101.65412946400005,5.877629551000041],[101.66165331200006,5.868903144000058],[101.65560464100008,5.857421782000074],[101.66037902000005,5.849689564000073],[101.66766570800007,5.853468522000071],[101.67340974800004,5.86182554100003],[101.68157990500004,5.858407895000028],[101.68967413500008,5.847982627000022],[101.70324519500008,5.850222317000032],[101.71467252100007,5.859927621000054],[101.72601594000008,5.858778578000056],[101.72621438200008,5.86399384200007],[101.74311922100009,5.860101947000032],[101.74520915400007,5.850945370000034],[101.74141056700006,5.843475136000052],[101.74283676000005,5.837551698000027],[101.75181558200006,5.835870599000032],[101.76441023100006,5.830038178000052],[101.78973724200006,5.800878667000063],[101.80082291600007,5.79463830800006],[101.80400711000004,5.802164608000055],[101.81771073600004,5.80289278500004],[101.81579487100004,5.812695891000033],[101.81868012400008,5.816511485000035],[101.81628756600009,5.825006239000061],[101.81077957400004,5.832985192000024],[101.80962336200008,5.842222094000022],[101.80488437200006,5.855620406000071],[101.79542202600004,5.869658564000076],[101.80192880700008,5.882943031000025],[101.80208199300006,5.8972922190000645],[101.80784239300004,5.9094862660000445],[101.80497193400004,5.928212132000056],[101.80697305900009,5.9389121250000585],[101.80508064200006,5.9454608020000705],[101.81434465800004,5.95796027800003]]]}},{"type":"Feature","properties":{"tambon":"สุคิริน","tambonCode":"TH960902","district":"สุคิริน","districtCode":"TH9609","province":"นราธิวาส"},"geometry":{"type":"Polygon","coordinates":[[[101.73941692300008,5.985857304000035],[101.73472925900006,5.99286092400007],[101.72875208000005,5.988941518000047],[101.71894533700004,5.99176303400003],[101.71107393500006,5.990856982000025],[101.70595629200005,6.0001943940000615],[101.69977959500005,5.998047272000065],[101.69624722800006,5.991621902000077],[101.68757685400004,5.9965277940000306],[101.67997199500007,5.997532515000046],[101.67336192400006,5.986784226000054],[101.67276978400008,5.979404705000036],[101.65942969400004,5.960682643000041],[101.65124580200006,5.956448868000052],[101.65106761900006,5.934588604000055],[101.64618286800004,5.925843115000021],[101.66008267400008,5.9246904890000565],[101.67006832000004,5.917505102000064],[101.68437905200005,5.921364168000025],[101.69824033400005,5.915231120000044],[101.69501328300004,5.89397185200005],[101.70648700800007,5.898698220000028],[101.71368026100004,5.905588518000059],[101.71750216800007,5.9133394600000315],[101.72795302900005,5.912978152000051],[101.72886885600008,5.908452650000072],[101.73796192900005,5.903495021000026],[101.74659747000004,5.907366816000035],[101.74606307900007,5.912806962000047],[101.76124130600004,5.916681577000077],[101.76828603200005,5.924550792000048],[101.76658407900004,5.9285958060000326],[101.77625666800009,5.9431410960000335],[101.76695692300007,5.943412723000051],[101.75912904500007,5.950521285000036],[101.75923465100004,5.959597282000061],[101.74990571800004,5.970060185000023],[101.75178366800009,5.974914100000035],[101.74044888000009,5.982264987000065],[101.73941692300008,5.985857304000035]]]}},{"type":"Feature","properties":{"tambon":"เกียร์","tambonCode":"TH960903","district":"สุคิริน","districtCode":"TH9609","province":"นราธิวาส"},"geometry":{"type":"Polygon","coordinates":[[[101.80981812700009,5.97719889800004],[101.79892319600003,5.988379265000049],[101.80359929000008,6.007460323000032],[101.80220517000004,6.023606419000032],[101.79500707000005,6.034065045000034],[101.78447187600005,6.0348069390000205],[101.77710295900005,6.02878090400003],[101.76709443300007,6.010660413000039],[101.75207408500006,6.003654788000063],[101.75288252100006,5.999402040000064],[101.74539167400007,5.9940913710000245],[101.73941692300008,5.985857304000035],[101.74044888000009,5.982264987000065],[101.75178366800009,5.974914100000035],[101.74990571800004,5.970060185000023],[101.75923465100004,5.959597282000061],[101.75912904500007,5.950521285000036],[101.76695692300007,5.943412723000051],[101.77625666800009,5.9431410960000335],[101.77608112300004,5.950358562000076],[101.78082617300004,5.957480416000067],[101.78869856600005,5.956687278000061],[101.81243325100007,5.962967883000033],[101.80981812700009,5.97719889800004]]]}},{"type":"Feature","properties":{"tambon":"ภูเขาทอง","tambonCode":"TH960904","district":"สุคิริน","districtCode":"TH9609","province":"นราธิวาส"},"geometry":{"type":"Polygon","coordinates":[[[101.80082291600007,5.79463830800006],[101.78973724200006,5.800878667000063],[101.76441023100006,5.830038178000052],[101.75181558200006,5.835870599000032],[101.74283676000005,5.837551698000027],[101.74141056700006,5.843475136000052],[101.74520915400007,5.850945370000034],[101.74311922100009,5.860101947000032],[101.72621438200008,5.86399384200007],[101.72601594000008,5.858778578000056],[101.71467252100007,5.859927621000054],[101.70324519500008,5.850222317000032],[101.68967413500008,5.847982627000022],[101.68157990500004,5.858407895000028],[101.67340974800004,5.86182554100003],[101.66766570800007,5.853468522000071],[101.66037902000005,5.849689564000073],[101.65676185000007,5.838510030000066],[101.65870102700006,5.825984810000023],[101.65724430900008,5.818665034000048],[101.66752325700008,5.807796644000064],[101.66427178300006,5.800654824000048],[101.66896585000006,5.7905250640000645],[101.67874411300005,5.781354658000055],[101.68633473000006,5.782369886000026],[101.69004600500006,5.772244800000067],[101.69020704800005,5.756031193000069],[101.69706595800005,5.752742203000025],[101.70632682400009,5.754942219000043],[101.70912767500005,5.761266337000052],[101.71520575100004,5.764697257000023],[101.71724722500005,5.780832266000061],[101.72573121300007,5.784624148000034],[101.74059245000007,5.783501514000022],[101.74440370900004,5.7942345420000265],[101.75291375400008,5.797071240000037],[101.76179870700008,5.794778533000056],[101.76635184400004,5.789154545000031],[101.77638713600004,5.783570355000052],[101.77539132300006,5.768976450000025],[101.79243607300003,5.751055036000025],[101.79938696400006,5.750232059000041],[101.80841699500007,5.743724288000067],[101.81743903000006,5.733001936000051],[101.82386041900008,5.73235981800002],[101.82787790500004,5.737927956000021],[101.82363085400004,5.753403849000051],[101.81947568500004,5.754131442000073],[101.82516801800006,5.767311993000021],[101.81662113400006,5.775647118000052],[101.80082291600007,5.79463830800006]]]}},{"type":"Feature","properties":{"tambon":"ร่มไทร","tambonCode":"TH960905","district":"สุคิริน","districtCode":"TH9609","province":"นราธิวาส"},"geometry":{"type":"Polygon","coordinates":[[[101.79500707000005,6.034065045000034],[101.79947713000007,6.042842906000033],[101.80995997900004,6.0497654710000575],[101.81121664400007,6.053323000000034],[101.80662660400009,6.065839721000032],[101.79846271800005,6.071623633000058],[101.80252557100005,6.0831367210000735],[101.79931654300003,6.087545835000071],[101.78515110800004,6.086368914000047],[101.77488003500008,6.077360429000066],[101.75508457800004,6.080357777000074],[101.74925456600005,6.0786485860000425],[101.74531547300006,6.083675757000037],[101.73653363300008,6.086010483000052],[101.73531857200004,6.074442900000065],[101.72871508200006,6.071050384000046],[101.71987730000006,6.071905360000073],[101.71875888000005,6.067034716000023],[101.71027504900007,6.066122798000038],[101.71345639200007,6.045751257000063],[101.70816745200005,6.03750592800003],[101.70083859000005,6.031408269000053],[101.69604106200006,6.020352122000077],[101.69670109700007,6.014743397000075],[101.69095060300003,6.002312587000063],[101.67997199500007,5.997532515000046],[101.68757685400004,5.9965277940000306],[101.69624722800006,5.991621902000077],[101.69977959500005,5.998047272000065],[101.70595629200005,6.0001943940000615],[101.71107393500006,5.990856982000025],[101.71894533700004,5.99176303400003],[101.72875208000005,5.988941518000047],[101.73472925900006,5.99286092400007],[101.73941692300008,5.985857304000035],[101.74539167400007,5.9940913710000245],[101.75288252100006,5.999402040000064],[101.75207408500006,6.003654788000063],[101.76709443300007,6.010660413000039],[101.77710295900005,6.02878090400003],[101.78447187600005,6.0348069390000205],[101.79500707000005,6.034065045000034]]]}},{"type":"Feature","properties":{"tambon":"สุไหงโก-ลก","tambonCode":"TH961001","district":"สุไหงโก-ลก","districtCode":"TH9610","province":"นราธิวาส"},"geometry":{"type":"Polygon","coordinates":[[[101.94816826500005,5.990587145000063],[101.96306541500007,5.99572241900006],[101.97252843600006,6.005583066000042],[101.97104519800007,6.0179139590000545],[101.97802499700003,6.029942283000025],[101.97435264300003,6.035241475000021],[101.95380921000009,6.031198636000056],[101.95493183500008,6.023708649000071],[101.93674007500005,6.021352124000032],[101.91893215700009,6.032327472000077],[101.91808357200006,6.028668555000024],[101.91545434000005,6.018440339000051],[101.92456490800004,6.015719499000056],[101.93743112200008,6.002489671000035],[101.93837235500007,5.996406317000037],[101.94816826500005,5.990587145000063]]]}},{"type":"Feature","properties":{"tambon":"ปาเสมัส","tambonCode":"TH961002","district":"สุไหงโก-ลก","districtCode":"TH9610","province":"นราธิวาส"},"geometry":{"type":"Polygon","coordinates":[[[102.01047801100003,6.082841606000045],[101.99958722800005,6.081985829000075],[101.99684114200005,6.093756272000064],[101.98967787600009,6.095299690000047],[101.97639643900004,6.090115225000034],[101.97201767700005,6.084113427000034],[101.96509869500005,6.082804230000022],[101.96394681700008,6.076524266000035],[101.95444978200004,6.074345285000049],[101.94629455700004,6.076900297000066],[101.93870299700006,6.074028243000043],[101.94280322600008,6.064498439000033],[101.93942304000007,6.052618428000073],[101.93402336500009,6.044579200000044],[101.91893215700009,6.032327472000077],[101.93674007500005,6.021352124000032],[101.95493183500008,6.023708649000071],[101.95380921000009,6.031198636000056],[101.97435264300003,6.035241475000021],[101.97802499700003,6.029942283000025],[101.98203122200005,6.028616603000046],[101.98769306500009,6.036876788000029],[101.99819526200008,6.039509958000053],[102.00415337400005,6.044110851000028],[102.00316984800008,6.049849631000029],[102.01953777600005,6.052107114000023],[102.02134049500006,6.060131142000046],[102.03017486800007,6.067159557000025],[102.01047801100003,6.082841606000045]]]}},{"type":"Feature","properties":{"tambon":"มูโนะ","tambonCode":"TH961003","district":"สุไหงโก-ลก","districtCode":"TH9610","province":"นราธิวาส"},"geometry":{"type":"Polygon","coordinates":[[[102.06406462100006,6.104892113000062],[102.05177458200006,6.127602833000026],[102.04603599400008,6.130172673000061],[102.03987486400007,6.119566622000036],[102.03099825500004,6.116014393000057],[102.01509619200004,6.0841878820000375],[102.01047801100003,6.082841606000045],[102.03017486800007,6.067159557000025],[102.05426935100007,6.080417613000066],[102.05919994300007,6.09683523700005],[102.06406462100006,6.104892113000062]]]}},{"type":"Feature","properties":{"tambon":"ปูโยะ","tambonCode":"TH961004","district":"สุไหงโก-ลก","districtCode":"TH9610","province":"นราธิวาส"},"geometry":{"type":"Polygon","coordinates":[[[102.04976062100008,6.14446001400006],[102.03089718800004,6.147648042000071],[102.02270797500006,6.151056502000074],[101.98552913300006,6.120914257000038],[101.93645121000009,6.07926830100007],[101.93740162200004,6.076981258000046],[101.93870299700006,6.074028243000043],[101.94629455700004,6.076900297000066],[101.95444978200004,6.074345285000049],[101.96394681700008,6.076524266000035],[101.96509869500005,6.082804230000022],[101.97201767700005,6.084113427000034],[101.97639643900004,6.090115225000034],[101.98967787600009,6.095299690000047],[101.99684114200005,6.093756272000064],[101.99958722800005,6.081985829000075],[102.01047801100003,6.082841606000045],[102.01509619200004,6.0841878820000375],[102.03099825500004,6.116014393000057],[102.03987486400007,6.119566622000036],[102.04603599400008,6.130172673000061],[102.05028009200004,6.138121252000076],[102.04976062100008,6.14446001400006]]]}},{"type":"Feature","properties":{"tambon":"ปะลุรู","tambonCode":"TH961101","district":"สุไหงปาดี","districtCode":"TH9611","province":"นราธิวาส"},"geometry":{"type":"Polygon","coordinates":[[[101.93740162200004,6.076981258000046],[101.92874935100008,6.082421018000048],[101.92785674100008,6.089265158000046],[101.92235635900005,6.09297384100006],[101.91102826300005,6.095507904000044],[101.91118825300003,6.119997180000041],[101.90738880900005,6.12858174400003],[101.89396747700005,6.1359580560000495],[101.89004993300006,6.111126114000058],[101.88478397300008,6.102773409000065],[101.87255760600004,6.092927049000025],[101.84540499900004,6.084924511000054],[101.85532474400009,6.073535062000076],[101.86381570100008,6.068441138000026],[101.88787288300006,6.044082338000067],[101.91808357200006,6.028668555000024],[101.91893215700009,6.032327472000077],[101.93402336500009,6.044579200000044],[101.93942304000007,6.052618428000073],[101.94280322600008,6.064498439000033],[101.93870299700006,6.074028243000043],[101.93740162200004,6.076981258000046]]]}},{"type":"Feature","properties":{"tambon":"สุไหงปาดี","tambonCode":"TH961102","district":"สุไหงปาดี","districtCode":"TH9611","province":"นราธิวาส"},"geometry":{"type":"Polygon","coordinates":[[[101.91712836600004,6.277851158000033],[101.91159844600008,6.268883902000027],[101.91802622600005,6.259012279000046],[101.90423620800004,6.256464310000069],[101.90364361200005,6.224075755000058],[101.90113469200008,6.213035318000038],[101.88570054900003,6.195446071000049],[101.87473287400007,6.198722743000076],[101.86897742000008,6.1902642360000755],[101.85707624300005,6.190912923000042],[101.85811579700004,6.179920432000074],[101.86435043000006,6.171262197000033],[101.86117187100007,6.16069784900003],[101.87128300600006,6.151087675000042],[101.89396747700005,6.1359580560000495],[101.90738880900005,6.12858174400003],[101.91118825300003,6.119997180000041],[101.91102826300005,6.095507904000044],[101.92235635900005,6.09297384100006],[101.92785674100008,6.089265158000046],[101.92874935100008,6.082421018000048],[101.93740162200004,6.076981258000046],[101.93645121000009,6.07926830100007],[101.98552913300006,6.120914257000038],[102.02270797500006,6.151056502000074],[101.98734927800007,6.176910617000033],[101.97252574800007,6.188591584000051],[101.91919873800003,6.230605125000068],[101.92904201800008,6.237435447000053],[101.92652177600007,6.24923725900004],[101.93210733100005,6.253134275000036],[101.93137270200003,6.260221153000032],[101.92437040100003,6.26527205900004],[101.91775549000005,6.27113120000007],[101.91712836600004,6.277851158000033]]]}},{"type":"Feature","properties":{"tambon":"โต๊ะเด็ง","tambonCode":"TH961103","district":"สุไหงปาดี","districtCode":"TH9611","province":"นราธิวาส"},"geometry":{"type":"Polygon","coordinates":[[[101.84540499900004,6.084924511000054],[101.87255760600004,6.092927049000025],[101.88478397300008,6.102773409000065],[101.89004993300006,6.111126114000058],[101.89396747700005,6.1359580560000495],[101.87128300600006,6.151087675000042],[101.86117187100007,6.16069784900003],[101.85120668900004,6.149097373000075],[101.83012761600008,6.139330249000068],[101.82620682700008,6.125827610000044],[101.82671015500006,6.107041804000062],[101.83303452300004,6.096924330000036],[101.84540499900004,6.084924511000054]]]}},{"type":"Feature","properties":{"tambon":"สากอ","tambonCode":"TH961104","district":"สุไหงปาดี","districtCode":"TH9611","province":"นราธิวาส"},"geometry":{"type":"Polygon","coordinates":[[[101.85362909700007,6.028083818000027],[101.84054151900006,6.034352777000038],[101.83552143700007,6.05112228400003],[101.83346935200007,6.076011676000064],[101.82376615900006,6.0858920010000475],[101.80830074400006,6.098394533000032],[101.79931654300003,6.087545835000071],[101.80252557100005,6.0831367210000735],[101.79846271800005,6.071623633000058],[101.80662660400009,6.065839721000032],[101.81121664400007,6.053323000000034],[101.80995997900004,6.0497654710000575],[101.79947713000007,6.042842906000033],[101.79500707000005,6.034065045000034],[101.80220517000004,6.023606419000032],[101.80359929000008,6.007460323000032],[101.79892319600003,5.988379265000049],[101.80981812700009,5.97719889800004],[101.81662129400007,5.979753908000021],[101.81757023900008,5.986398137000037],[101.82383695800007,5.992872080000041],[101.83052260700003,5.98681031600006],[101.84639112300005,5.990401676000033],[101.85589726000006,5.984895431000041],[101.86268457200003,5.98385375600003],[101.86817458500008,5.986384878000024],[101.87179686600007,5.994478984000068],[101.88701593600007,5.9851572160000615],[101.89592755900009,5.984301038000069],[101.88828066900004,6.004170527000042],[101.88419933000006,6.00933645300006],[101.85362909700007,6.028083818000027]]]}},{"type":"Feature","properties":{"tambon":"ริโก๋","tambonCode":"TH961105","district":"สุไหงปาดี","districtCode":"TH9611","province":"นราธิวาส"},"geometry":{"type":"Polygon","coordinates":[[[101.85362909700007,6.028083818000027],[101.85952842800003,6.032084300000065],[101.87848549100005,6.034299096000041],[101.88787288300006,6.044082338000067],[101.86381570100008,6.068441138000026],[101.85532474400009,6.073535062000076],[101.84540499900004,6.084924511000054],[101.83303452300004,6.096924330000036],[101.82671015500006,6.107041804000062],[101.82620682700008,6.125827610000044],[101.83012761600008,6.139330249000068],[101.82569542500005,6.1377723330000435],[101.80505113600003,6.1241100340000685],[101.80450575600008,6.113713475000054],[101.80830074400006,6.098394533000032],[101.82376615900006,6.0858920010000475],[101.83346935200007,6.076011676000064],[101.83552143700007,6.05112228400003],[101.84054151900006,6.034352777000038],[101.85362909700007,6.028083818000027]]]}},{"type":"Feature","properties":{"tambon":"กาวะ","tambonCode":"TH961106","district":"สุไหงปาดี","districtCode":"TH9611","province":"นราธิวาส"},"geometry":{"type":"Polygon","coordinates":[[[101.91808357200006,6.028668555000024],[101.88787288300006,6.044082338000067],[101.87848549100005,6.034299096000041],[101.85952842800003,6.032084300000065],[101.85362909700007,6.028083818000027],[101.88419933000006,6.00933645300006],[101.88828066900004,6.004170527000042],[101.89592755900009,5.984301038000069],[101.91110119300004,5.995972340000037],[101.92456490800004,6.015719499000056],[101.91545434000005,6.018440339000051],[101.91808357200006,6.028668555000024]]]}},{"type":"Feature","properties":{"tambon":"จะแนะ","tambonCode":"TH961201","district":"จะแนะ","districtCode":"TH9612","province":"นราธิวาส"},"geometry":{"type":"Polygon","coordinates":[[[101.70372082400007,6.147221647000038],[101.69697225000004,6.150081914000054],[101.68505713400003,6.142863545000068],[101.68134955300008,6.125663430000031],[101.66713495900007,6.107580125000027],[101.67695580700007,6.0994965990000765],[101.68491200600005,6.089363108000043],[101.68223473600005,6.070576317000075],[101.67007514000005,6.06457735500004],[101.65844899200005,6.05341646200003],[101.66152350800007,6.042949785000076],[101.65994459500007,6.028628370000035],[101.66937323100007,6.023775299000022],[101.68256809600007,6.001878923000049],[101.67997199500007,5.997532515000046],[101.69095060300003,6.002312587000063],[101.69670109700007,6.014743397000075],[101.69604106200006,6.020352122000077],[101.70083859000005,6.031408269000053],[101.70816745200005,6.03750592800003],[101.71345639200007,6.045751257000063],[101.71027504900007,6.066122798000038],[101.71875888000005,6.067034716000023],[101.71987730000006,6.071905360000073],[101.72871508200006,6.071050384000046],[101.73531857200004,6.074442900000065],[101.73653363300008,6.086010483000052],[101.73040110400007,6.095125235000069],[101.72731092700008,6.11242618600005],[101.71788194900006,6.1345232080000756],[101.70945270700008,6.1451887630000215],[101.70372082400007,6.147221647000038]]]}},{"type":"Feature","properties":{"tambon":"ดุซงญอ","tambonCode":"TH961202","district":"จะแนะ","districtCode":"TH9612","province":"นราธิวาส"},"geometry":{"type":"Polygon","coordinates":[[[101.71286002200009,6.170464870000046],[101.71181701000006,6.187861445000067],[101.69323228800005,6.189846113000044],[101.68558024800006,6.18450695100006],[101.67195143700008,6.188647935000063],[101.66632012000008,6.186031342000035],[101.65406800900007,6.186485431000051],[101.63870287700007,6.173965352000039],[101.63236308900008,6.173694683000065],[101.62828762800007,6.180893811000033],[101.61750412600009,6.1649013450000325],[101.61999763300008,6.1578786250000235],[101.61289864100007,6.149321637000071],[101.61626098800008,6.136865517000047],[101.61328296600004,6.120118110000021],[101.60657001600003,6.114985101000059],[101.60642080500008,6.105919555000071],[101.60155139300008,6.094079823000072],[101.61632464300004,6.08557925100007],[101.62824784900005,6.09229287900007],[101.63991198600007,6.087395486000048],[101.65252915500008,6.086139020000076],[101.66713495900007,6.107580125000027],[101.68134955300008,6.125663430000031],[101.68505713400003,6.142863545000068],[101.69697225000004,6.150081914000054],[101.70372082400007,6.147221647000038],[101.70889551600004,6.1710786370000505],[101.71286002200009,6.170464870000046]]]}},{"type":"Feature","properties":{"tambon":"ผดุงมาตร","tambonCode":"TH961203","district":"จะแนะ","districtCode":"TH9612","province":"นราธิวาส"},"geometry":{"type":"Polygon","coordinates":[[[101.71286002200009,6.170464870000046],[101.70889551600004,6.1710786370000505],[101.70372082400007,6.147221647000038],[101.70945270700008,6.1451887630000215],[101.71788194900006,6.1345232080000756],[101.72731092700008,6.11242618600005],[101.73040110400007,6.095125235000069],[101.73653363300008,6.086010483000052],[101.74531547300006,6.083675757000037],[101.74925456600005,6.0786485860000425],[101.75508457800004,6.080357777000074],[101.77488003500008,6.077360429000066],[101.78515110800004,6.086368914000047],[101.79931654300003,6.087545835000071],[101.80830074400006,6.098394533000032],[101.80450575600008,6.113713475000054],[101.80505113600003,6.1241100340000685],[101.80185691300005,6.129716704000032],[101.79353668300007,6.132768314000032],[101.78555712500008,6.128380058000062],[101.77888929600005,6.132234608000033],[101.77272723700008,6.123266196000031],[101.76278132800007,6.122123596000051],[101.75343134300005,6.115496244000042],[101.74863762500007,6.117584996000062],[101.74189592700009,6.1344561100000305],[101.73309700200008,6.139451282000039],[101.73043649800007,6.15039487100006],[101.72272546300007,6.161335845000053],[101.71402880100004,6.165382711000063],[101.71286002200009,6.170464870000046]]]}},{"type":"Feature","properties":{"tambon":"ช้างเผือก","tambonCode":"TH961204","district":"จะแนะ","districtCode":"TH9612","province":"นราธิวาส"},"geometry":{"type":"Polygon","coordinates":[[[101.67997199500007,5.997532515000046],[101.68256809600007,6.001878923000049],[101.66937323100007,6.023775299000022],[101.65994459500007,6.028628370000035],[101.66152350800007,6.042949785000076],[101.65844899200005,6.05341646200003],[101.67007514000005,6.06457735500004],[101.68223473600005,6.070576317000075],[101.68491200600005,6.089363108000043],[101.67695580700007,6.0994965990000765],[101.66713495900007,6.107580125000027],[101.65252915500008,6.086139020000076],[101.63991198600007,6.087395486000048],[101.62824784900005,6.09229287900007],[101.61632464300004,6.08557925100007],[101.60155139300008,6.094079823000072],[101.58337674900008,6.09295378500002],[101.57602051000003,6.087228122000056],[101.56424423500005,6.086749638000072],[101.56157151000008,6.078444330000025],[101.55119546700007,6.075145485000064],[101.53768584000005,6.075844049000068],[101.53115715000007,6.073102838000068],[101.52903554600005,6.067594044000032],[101.51161357300003,6.054083436000042],[101.50308589700006,6.062332697000045],[101.50357225200008,6.068989533000035],[101.49653671400006,6.074814566000043],[101.47058598000007,6.073894192000068],[101.47564693100009,6.065347087000021],[101.47793917500007,6.043515905000049],[101.47794144500006,6.019887918000052],[101.48238518500006,6.012613541000064],[101.47765716400005,6.007317795000063],[101.47817795400005,5.999076683000055],[101.47403560600009,5.99023918000006],[101.47890713600003,5.976474822000057],[101.48420985600006,5.977802619000045],[101.48618997300008,5.956339086000071],[101.49715997400006,5.94786724100004],[101.49003052600006,5.9366866620000565],[101.49231262400008,5.92224668800003],[101.49004147100004,5.914331677000064],[101.49214601300008,5.906075040000076],[101.49871170400007,5.899739339000064],[101.50222226700004,5.889682420000042],[101.51514094200007,5.903606966000041],[101.52359577200008,5.8987272340000345],[101.52615499600006,5.909153124000056],[101.54004649500007,5.919087150000053],[101.55409082900007,5.92119223800006],[101.55828845300005,5.919116290000034],[101.57241484900004,5.9255680940000275],[101.58108960500005,5.934509778000063],[101.58705465500009,5.930778299000053],[101.58937876200008,5.9186681680000675],[101.59956631200004,5.912137392000034],[101.60878526100004,5.914930727000069],[101.61480430400007,5.911255911000069],[101.61768585900006,5.896407322000073],[101.62749176000005,5.906647011000075],[101.63647430100008,5.90945789400007],[101.63671410600006,5.916607939000073],[101.64618286800004,5.925843115000021],[101.65106761900006,5.934588604000055],[101.65124580200006,5.956448868000052],[101.65942969400004,5.960682643000041],[101.67276978400008,5.979404705000036],[101.67336192400006,5.986784226000054],[101.67997199500007,5.997532515000046]]]}},{"type":"Feature","properties":{"tambon":"จวบ","tambonCode":"TH961301","district":"เจาะไอร้อง","districtCode":"TH9613","province":"นราธิวาส"},"geometry":{"type":"Polygon","coordinates":[[[101.86882592200004,6.2982413210000345],[101.85389984300008,6.297680144000026],[101.84726196300005,6.303057469000066],[101.83019049700005,6.298369575000038],[101.82211605500004,6.298502015000054],[101.79094559000004,6.260282399000062],[101.77786883400006,6.2498968430000446],[101.77087997300004,6.244004950000033],[101.76265623100005,6.232389278000028],[101.76778616000007,6.22948251300005],[101.77148737200008,6.220212683000057],[101.78277141800004,6.210248525000054],[101.78132288900008,6.200089523000031],[101.78385895600007,6.193750894000061],[101.79688223600004,6.214855865000061],[101.80585327900008,6.216169293000064],[101.80805030500005,6.220774296000059],[101.83681720000004,6.225540362000061],[101.83885859300005,6.232841855000061],[101.84359246400004,6.235559170000045],[101.84723795500008,6.258500925000021],[101.84335066500006,6.275218455000072],[101.85098314300006,6.285546047000025],[101.86708598300004,6.291230833000043],[101.86882592200004,6.2982413210000345]]]}},{"type":"Feature","properties":{"tambon":"บูกิต","tambonCode":"TH961302","district":"เจาะไอร้อง","districtCode":"TH9613","province":"นราธิวาส"},"geometry":{"type":"Polygon","coordinates":[[[101.88570054900003,6.195446071000049],[101.86641596600003,6.210779513000034],[101.85250927400006,6.22605605800004],[101.83885859300005,6.232841855000061],[101.83681720000004,6.225540362000061],[101.80805030500005,6.220774296000059],[101.80585327900008,6.216169293000064],[101.79688223600004,6.214855865000061],[101.78385895600007,6.193750894000061],[101.79034740900005,6.184970803000056],[101.78887842400007,6.177621611000063],[101.79115689600007,6.166309192000028],[101.79734287500008,6.153816462000066],[101.80335842100004,6.149278007000021],[101.80053219800004,6.1356130800000415],[101.80185691300005,6.129716704000032],[101.80505113600003,6.1241100340000685],[101.82569542500005,6.1377723330000435],[101.83012761600008,6.139330249000068],[101.85120668900004,6.149097373000075],[101.86117187100007,6.16069784900003],[101.86435043000006,6.171262197000033],[101.85811579700004,6.179920432000074],[101.85707624300005,6.190912923000042],[101.86897742000008,6.1902642360000755],[101.87473287400007,6.198722743000076],[101.88570054900003,6.195446071000049]]]}},{"type":"Feature","properties":{"tambon":"มะรือโบออก","tambonCode":"TH961303","district":"เจาะไอร้อง","districtCode":"TH9613","province":"นราธิวาส"},"geometry":{"type":"Polygon","coordinates":[[[101.91634903900007,6.2831757310000285],[101.91135229400004,6.288620984000033],[101.89530118400006,6.30035009900007],[101.88912154900004,6.300957355000037],[101.87798766400005,6.297224842000048],[101.86882592200004,6.2982413210000345],[101.86708598300004,6.291230833000043],[101.85098314300006,6.285546047000025],[101.84335066500006,6.275218455000072],[101.84723795500008,6.258500925000021],[101.84359246400004,6.235559170000045],[101.83885859300005,6.232841855000061],[101.85250927400006,6.22605605800004],[101.86641596600003,6.210779513000034],[101.88570054900003,6.195446071000049],[101.90113469200008,6.213035318000038],[101.90364361200005,6.224075755000058],[101.90423620800004,6.256464310000069],[101.91802622600005,6.259012279000046],[101.91159844600008,6.268883902000027],[101.91712836600004,6.277851158000033],[101.91634903900007,6.2831757310000285]]]}}]}
